hotel_name,hotel_url,hotel_location,group_label,brand_label,group_type,lat,lon,formatted_address,provider,confidence,place_id,types,partial_match,status
Conrad Abu Dhabi Etihad Towers,https://www.hilton.com/en/hotels/auhetci-conrad-abu-dhabi-etihad-towers/,,Conrad Hotels & Resorts,Conrad Hotels & Resorts,Brand,24.4584497,54.32230509999999,Corniche St - Al Bateen - W32 - Abu Dhabi - United Arab Emirates,google_places,PLACE_DETAILS,ChIJIX9-hZNlXj4RvO2QAgB5g18,establishment;lodging;point_of_interest;spa,False,PLACES:auhetci conrad abu dhabi etihad towers Conrad Hotels & Resorts Hotel
Conrad Algarve,https://www.hilton.com/en/hotels/faoapci-conrad-algarve/,,Conrad Hotels & Resorts,Conrad Hotels & Resorts,Brand,37.0632425,-8.0289784,"Estr. da Quinta do Lago, 8135-106 Almancil, Portugal",google_places,PLACE_DETAILS,ChIJ7_5NAXOzGg0RL61Ki4qSAo4,establishment;lodging;point_of_interest;spa,False,PLACES:faoapci conrad algarve Conrad Hotels & Resorts Hotel
Conrad Bali,https://www.hilton.com/en/hotels/bpncici-conrad-bali/,,Conrad Hotels & Resorts,Conrad Hotels & Resorts,Brand,-8.7811376,115.2249964,"Jl. Pratama No.168, Tanjung, Benoa, Kec. Kuta Sel., Kabupaten Badung, Bali 80363, Indonesia",google_places,PLACE_DETAILS,ChIJzR9XaA9D0i0RKM9T4eQUmdo,establishment;lodging;point_of_interest;spa,False,PLACES:bpncici conrad bali Conrad Hotels & Resorts Hotel
Conrad Bora Bora Nui,https://www.hilton.com/en/hotels/pptbnci-conrad-bora-bora-nui/,,Conrad Hotels & Resorts,Conrad Hotels & Resorts,Brand,-16.5297376,-151.7678688,"BP 502, Bora-Bora 98730, French Polynesia",google_places,PLACE_DETAILS,ChIJk-lncOC8vXYRc_-EYKBkcSY,establishment;lodging;point_of_interest,False,PLACES:pptbnci conrad bora bora nui Conrad Hotels & Resorts Hotel
Conrad Chia Laguna Sardinia,https://www.hilton.com/en/hotels/olbclci-conrad-chia-laguna-sardinia/,,Conrad Hotels & Resorts,Conrad Hotels & Resorts,Brand,38.8970768,8.8693673,"Viale dei Fenicotteri, 52, 09010 Domus de Maria CA, Italy",google_places,PLACE_DETAILS,ChIJTwe_N5bd5hIRtMqbaRJ1MJw,establishment;lodging;point_of_interest;spa,False,PLACES:olbclci conrad chia laguna sardinia Conrad Hotels & Resorts Hotel
Conrad Fort Lauderdale Beach,https://www.hilton.com/en/hotels/fllcici-conrad-fort-lauderdale-beach/,,Conrad Hotels & Resorts,Conrad Hotels & Resorts,Brand,26.1308735,-80.10422319999999,"551 N Fort Lauderdale Beach Blvd, Fort Lauderdale, FL 33304, USA",google_places,PLACE_DETAILS,ChIJYzGj5NMB2YgRMg7lRxEE1is,establishment;lodging;point_of_interest,False,PLACES:fllcici conrad fort lauderdale beach Conrad Hotels & Resorts Hotel
Conrad Hangzhou Tonglu,https://www.hilton.com/en/hotels/hghyfci-conrad-hangzhou-tonglu/,,Conrad Hotels & Resorts,Conrad Hotels & Resorts,Brand,29.9837492,119.4216053,"桐庐县分水镇天溪湖旅游度假区印渚2号, Tong Lu Xian, Hang Zhou Shi, Zhe Jiang Sheng, China, 311519",google_places,PLACE_DETAILS,ChIJhS2YnVNLSjQRVAZSw-XysjQ,establishment;lodging;point_of_interest,False,PLACES:hghyfci conrad hangzhou tonglu Conrad Hotels & Resorts Hotel
Conrad Jiuzhaigou,https://www.hilton.com/en/hotels/jzhcici-conrad-jiuzhaigou/,,Conrad Hotels & Resorts,Conrad Hotels & Resorts,Brand,33.3060378,103.8135625,"阿坝州, Lang Zhai Cun, 漳扎镇, Jiu Zhai Gou Xian, 四川省, China, 623402",google_places,PLACE_DETAILS,ChIJcQWnE3WU9zYR5M2bxHd8al8,establishment;lodging;point_of_interest,False,PLACES:jzhcici conrad jiuzhaigou Conrad Hotels & Resorts Hotel
Conrad Koh Samui,https://www.hilton.com/en/hotels/usmksci-conrad-koh-samui/,,Conrad Hotels & Resorts,Conrad Hotels & Resorts,Brand,9.420346499999999,99.9292121,"49/8-9 หมู่ที่ 4 Hillcrest Road Tambon Taling Ngam, Amphoe Ko Samui, Chang Wat Surat Thani 84140, Thailand",google_places,PLACE_DETAILS,ChIJ-2eHfPX1VDARiF6gnWsYiIY,establishment;lodging;point_of_interest;spa,False,PLACES:usmksci conrad koh samui Conrad Hotels & Resorts Hotel
Conrad Las Vegas at Resorts World,https://www.hilton.com/en/hotels/rslvhvh-resorts-world-las-vegas/rooms/conrad-las-vegas/,,Conrad Hotels & Resorts,Conrad Hotels & Resorts,Brand,36.1346181,-115.1655924,"111 Resorts World Ave, Las Vegas, NV 89109, USA",google_places,PLACE_DETAILS,ChIJqXJSOhPEyIAR4P3NJ0XNHy0,establishment;lodging;point_of_interest,False,PLACES:conrad las vegas Conrad Hotels & Resorts Hotel
Conrad Maldives Rangali Island,https://www.hilton.com/en/hotels/mlehici-conrad-maldives-rangali-island/,,Conrad Hotels & Resorts,Conrad Hotels & Resorts,Brand,3.6167957,72.72283709999999,"Rangali Island Alifu Dhaalu Atoll, 20077, Maldives",google_places,PLACE_DETAILS,ChIJiTEs85zVQDsRWHRlV-8QiEU,establishment;lodging;point_of_interest;spa,False,PLACES:mlehici conrad maldives rangali island Conrad Hotels & Resorts Hotel
Conrad Orlando,https://www.hilton.com/en/hotels/orlcici-conrad-orlando/,,Conrad Hotels & Resorts,Conrad Hotels & Resorts,Brand,28.40968,-81.52734,"1500 Eastbeach Wy, Orlando, FL 32836, USA",google_places,PLACE_DETAILS,ChIJOS4VAwiA54gRKZzBNma4zm8,establishment;lodging;point_of_interest,False,PLACES:orlcici conrad orlando Conrad Hotels & Resorts Hotel
Conrad Punta de Mita,https://www.hilton.com/en/hotels/pvrpmci-conrad-punta-de-mita/,,Conrad Hotels & Resorts,Conrad Hotels & Resorts,Brand,20.7925178,-105.4876085,"Carr. Punta de Mita Manzana Sayulita Km 2, Litibu, 63734 Desarrollo Punta Mita, Nay., Mexico",google_places,PLACE_DETAILS,ChIJQcUEJZcUIYQRoNCkHCqB_bg,establishment;lodging;point_of_interest,False,PLACES:pvrpmci conrad punta de mita Conrad Hotels & Resorts Hotel
Conrad Rabat Arzana,https://www.hilton.com/en/hotels/rbacici-conrad-rabat-arzana/,,Conrad Hotels & Resorts,Conrad Hotels & Resorts,Brand,33.9011609,-7.0005649,"Plage Val d'Or, Rabat 12040, Morocco",google_places,PLACE_DETAILS,ChIJ4TfcmxUNpw0ROHOtdFJPtUU,establishment;lodging;point_of_interest;spa,False,PLACES:rbacici conrad rabat arzana Conrad Hotels & Resorts Hotel
Conrad Tulum Riviera Maya,https://www.hilton.com/en/hotels/cuncici-conrad-tulum-riviera-maya/,,Conrad Hotels & Resorts,Conrad Hotels & Resorts,Brand,20.3566714,-87.3381737,"Carr. Cancún - Tulum 307, Tulkal, 77774 Cdad. Chemuyil, Q.R., Mexico",google_places,PLACE_DETAILS,ChIJWUmObaozTo8R6Sm3Lg0afEo,establishment;lodging;point_of_interest,False,PLACES:cuncici conrad tulum riviera maya Conrad Hotels & Resorts Hotel
"Aulus Lindos Rhodes Resort, Curio Collection by Hilton",https://www.hilton.com/en/hotels/rholiqq-lindian-village-beach-resort-rhodes/,,Curio Collection by Hilton,Curio Collection by Hilton,Brand,36.0666332,27.9915476,"Beach, Λάρδος 851 09, Greece",google_places,PLACE_DETAILS,ChIJO801WgMJlRQRagIXAPOqxxs,establishment;lodging;point_of_interest;spa,False,PLACES:rholiqq lindian village beach resort rhodes Curio Collection by Hilton Hotel
"Baia di Chia Resort Sardinia, Curio Collection by Hilton",https://www.hilton.com/en/hotels/olbbrqq-baia-di-chia-resort-sardinia,,Curio Collection by Hilton,Curio Collection by Hilton,Brand,38.895568,8.8702674,"Viale Spartivento, 1, 09010 Chia CA, Italy",google_places,PLACE_DETAILS,ChIJD1i2Ndfd5hIRHN8VxyLKJ6M,establishment;lodging;point_of_interest,False,PLACES:olbbrqq baia di chia resort sardinia Curio Collection by Hilton Hotel
"Baker's Cay Resort Key Largo, Curio Collection by Hilton",https://www.hilton.com/en/hotels/kylcuqq-bakers-cay-resort-key-largo,,Curio Collection by Hilton,Curio Collection by Hilton,Brand,25.0666838,-80.47214579999999,"97000 Overseas Hwy, Key Largo, FL 33037, USA",google_places,PLACE_DETAILS,ChIJmYfmx35B14gRlyQZig4LeYU,establishment;lodging;point_of_interest,False,PLACES:kylcuqq bakers cay resort key largo Curio Collection by Hilton Hotel
"Boeira Garden Hotel Porto Gaia, Curio Collection by Hilton",https://www.hilton.com/en/hotels/opobgqq-boeira-garden-hotel-porto-gaia,,Curio Collection by Hilton,Curio Collection by Hilton,Brand,41.1357114,-8.6184595,"R. de Serpa Pinto 124, 4400-307 Vila Nova de Gaia, Portugal",google_places,PLACE_DETAILS,ChIJSeuZz3xlJA0R9dgcy15yUoM,establishment;lodging;point_of_interest;spa,False,PLACES:opobgqq boeira garden hotel porto gaia Curio Collection by Hilton Hotel
"Botanika Osa Peninsula, Curio Collection by Hilton",https://www.hilton.com/en/hotels/pjmcrqq-botanika-osa-peninsula,,Curio Collection by Hilton,Curio Collection by Hilton,Brand,8.527225999999999,-83.30671699999999,"Aeropuerto PJM, Costado del aeropuerto, Aeropuerto Oeste, Puntarenas Province, Puerto Jiménez, Costa Rica",google_places,PLACE_DETAILS,ChIJCS1QT-ZmpI8RiaOwW3E5U38,establishment;lodging;point_of_interest,False,PLACES:pjmcrqq botanika osa peninsula Curio Collection by Hilton Hotel
"Boulders Resort & Spa Scottsdale, Curio Collection by Hilton",https://www.hilton.com/en/hotels/phxrsqq-boulders-resort-and-spa-scottsdale,,Curio Collection by Hilton,Curio Collection by Hilton,Brand,33.8004156,-111.9237056,"34631 N Tom Darlington Dr, Scottsdale, AZ 85262, USA",google_places,PLACE_DETAILS,ChIJ38QnRjd5K4cRuwFlJrEVvYY,establishment;lodging;point_of_interest;spa,False,PLACES:phxrsqq boulders resort spa scottsdale Curio Collection by Hilton Hotel
"Casa Mani Resort Napa Valley, Curio Collection by Hilton",https://www.hilton.com/en/hotels/napvpqq-casa-mani-resort-napa-valley,,Curio Collection by Hilton,Curio Collection by Hilton,Brand,38.3003232,-122.3013043,"1075 California Blvd, Napa, CA 94559, USA",google_places,PLACE_DETAILS,ChIJlxgg-VgHhYARqI9xhyIEQ6M,establishment;lodging;point_of_interest,False,PLACES:napvpqq casa mani resort napa valley Curio Collection by Hilton Hotel
"Casa Marina Key West, Curio Collection by Hilton",https://www.hilton.com/en/hotels/eywcmqq-casa-marina-key-west,,Curio Collection by Hilton,Curio Collection by Hilton,Brand,24.5477352,-81.7901279,"1500 Reynolds St, Key West, FL 33040, USA",google_places,PLACE_DETAILS,ChIJOffyTNm30YgRJQ5EnobQkVE,establishment;lodging;point_of_interest,False,PLACES:eywcmqq casa marina key west Curio Collection by Hilton Hotel
"Cloudland at McLemore Resort Lookout Mountain, Curio",https://www.hilton.com/en/hotels/atlokqq-cloudland-at-mclemore-resort-lookout-mountain,,Curio Collection by Hilton,Curio Collection by Hilton,Brand,34.7385152,-85.4462351,"243 Cloudland Dr, Rising Fawn, GA 30738, USA",google_places,PLACE_DETAILS,ChIJmUoQOEA3YIgRaE5OX4dEm-o,establishment;lodging;point_of_interest,False,PLACES:atlokqq cloudland mclemore resort lookout mountain Curio Collection by Hilton Hotel
"Diplomat Beach Resort Hollywood, Curio Collection by Hilton",https://www.hilton.com/en/hotels/flldhqq-the-diplomat-beach-resort-hollywood,,Curio Collection by Hilton,Curio Collection by Hilton,Brand,25.9917114,-80.117931,"3555 S Ocean Dr, Hollywood, FL 33019, USA",google_places,PLACE_DETAILS,ChIJucq_QV6r2YgR3ABMJngVlVw,establishment;lodging;point_of_interest,False,PLACES:flldhqq diplomat beach resort hollywood Curio Collection by Hilton Hotel
"Domes Aulus Elounda Resort, Curio by Hilton",https://www.hilton.com/en/hotels/herbsqq-domes-aulus-elounda-resort,,Curio Collection by Hilton,Curio Collection by Hilton,Brand,35.277694,25.7232969,"Aghia Paraskevi, Schisma Elountas 720 53, Greece",google_places,PLACE_DETAILS,ChIJH2FY6TGDkBQRK8M-D8ZrGrM,establishment;lodging;point_of_interest;spa,False,PLACES:herbsqq domes aulus elounda resort Curio Collection by Hilton Hotel
"Faro Blanco Resort & Yacht Club Marathon, Curio by Hilton",https://www.hilton.com/en/hotels/mthfbqq-faro-blanco-resort-and-yacht-club-marathon,,Curio Collection by Hilton,Curio Collection by Hilton,Brand,24.7095505,-81.1051153,"1996 Overseas Hwy, Marathon, FL 33050, USA",google_places,PLACE_DETAILS,ChIJM5m7vuze0IgRdiqNqJoC5CY,establishment;lodging;point_of_interest,False,PLACES:mthfbqq faro blanco resort yacht club marathon Curio Collection by Hilton Hotel
"Gale South Beach, Curio Collection by Hilton",https://www.hilton.com/en/hotels/miagsqq-gale-south-beach,,Curio Collection by Hilton,Curio Collection by Hilton,Brand,25.7921419,-80.13023,"1690 Collins Ave, Miami Beach, FL 33139, USA",google_places,PLACE_DETAILS,ChIJazj3FJu02YgR_4npDxUJIZM,establishment;lodging;point_of_interest,False,PLACES:miagsqq gale south beach Curio Collection by Hilton Hotel
"Grand Hotel des Sablettes Plage, Curio Collection by Hilton",https://www.hilton.com/en/hotels/tlnspqq-grand-hotel-des-sablettes-plage,,Curio Collection by Hilton,Curio Collection by Hilton,Brand,43.07875749999999,5.8916996,"575 Av. Charles de Gaulle, 83500 La Seyne-sur-Mer, France",google_places,PLACE_DETAILS,ChIJMUA3-DUDyRIR7QqxUQtrD4s,establishment;lodging;point_of_interest;spa,False,PLACES:tlnspqq grand hotel des sablettes plage Curio Collection by Hilton Hotel
"Harbor Club St. Lucia, Curio Collection by Hilton",https://www.hilton.com/en/hotels/sluhcqq-harbor-club-st-lucia,,Curio Collection by Hilton,Curio Collection by Hilton,Brand,14.0733749,-60.94774229999999,"Rodney Bay Marina, Gros Islet, St Lucia",google_places,PLACE_DETAILS,ChIJTbLvb4RCQIwR7vQu04tRyAY,establishment;lodging;point_of_interest,False,PLACES:sluhcqq harbor club st lucia Curio Collection by Hilton Hotel
"Higueron Hotel Malaga, Curio Collection by Hilton",https://www.hilton.com/en/hotels/agprhqq-higueron-hotel-malaga/,,Curio Collection by Hilton,Curio Collection by Hilton,Brand,36.5804062,-4.5956264,"Av. del Higuerón, 48, 29640 Fuengirola, Málaga, Spain",google_places,PLACE_DETAILS,ChIJ9Yuj1w3jcg0RcbKU2iByoVI,establishment;lodging;point_of_interest;spa,False,PLACES:agprhqq higueron hotel malaga Curio Collection by Hilton Hotel
"Hotel Alpenrock Breckenridge, Curio Collection by Hilton",https://www.hilton.com/en/hotels/qkbbrqq-alpenrock-breckenridge/,,Curio Collection by Hilton,Curio Collection by Hilton,Brand,39.4755161,-106.0503303,"550 Village Rd, Breckenridge, CO 80424, USA",google_places,PLACE_DETAILS,ChIJ5ZNbc2P2aocRiXqyi4ut7OU,establishment;lodging;point_of_interest,False,PLACES:qkbbrqq alpenrock breckenridge Curio Collection by Hilton Hotel
"Hotel Maren Fort Lauderdale Beach, Curio Collection by Hilton",https://www.hilton.com/en/hotels/fllucqq-hotel-maren-fort-lauderdale-beach/,,Curio Collection by Hilton,Curio Collection by Hilton,Brand,26.1158213,-80.1052631,"525 S Fort Lauderdale Beach Blvd, Fort Lauderdale, FL 33316, USA",google_places,PLACE_DETAILS,ChIJMygtZy8A2YgRN24gA8Rb-vg,establishment;lodging;point_of_interest,False,PLACES:fllucqq hotel maren fort lauderdale beach Curio Collection by Hilton Hotel
"Hotel del Coronado, Curio Collection by Hilton",https://www.hilton.com/en/hotels/sanqqqq-hotel-del-coronado/,,Curio Collection by Hilton,Curio Collection by Hilton,Brand,32.6805447,-117.178224,"1500 Orange Ave, Coronado, CA 92118, USA",google_places,PLACE_DETAILS,ChIJfX-aw82s3oARR6xrvVBVJXY,establishment;lodging;point_of_interest,False,PLACES:sanqqqq hotel del coronado Curio Collection by Hilton Hotel
"Il Picciolo Etna Golf Resort & Spa, Curio Collection by Hilton",https://www.hilton.com/en/hotels/ctasiqq-il-piccolo-etna-golf-resort-and-spa/,,Curio Collection by Hilton,Curio Collection by Hilton,Brand,37.8552037,15.1025861,"SS120, KM 200, 95012 Castiglione di Sicilia CT, Italy",google_places,PLACE_DETAILS,ChIJo2qx8X4cFBMRfy-fWXcoOwE,establishment;lodging;point_of_interest;spa,False,PLACES:ctasiqq il piccolo etna golf resort spa Curio Collection by Hilton Hotel
Indura Beach & Golf Resort Curio Collection by Hilton,https://www.hilton.com/en/hotels/teaibqq-indura-beach-and-golf-resort/,,Curio Collection by Hilton,Curio Collection by Hilton,Brand,15.8009193,-87.538635,"Desarollo Turistico Bahia de Tela, Tela, AT, Honduras",google_places,PLACE_DETAILS,ChIJQTFTKmPVZ48RtEmRk3REPFU,establishment;lodging;point_of_interest,False,PLACES:teaibqq indura beach golf resort Curio Collection by Hilton Hotel
"Isla Brown Chania Resort, Curio Collection by Hilton",https://www.hilton.com/en/hotels/heribqq-isla-brown-resort-chania/,,Curio Collection by Hilton,Curio Collection by Hilton,Brand,35.5842249,24.0754187,"Stavros 731 00, Greece",google_places,PLACE_DETAILS,ChIJWXPnHWZ5nBQRtMoVXuWzvAc,establishment;lodging;point_of_interest;spa,False,PLACES:heribqq isla brown resort chania Curio Collection by Hilton Hotel
"Isla Brown Corinthia Resort & Spa, Curio Collection by Hilton",https://www.hilton.com/en/hotels/athibqq-isla-brown-corinthia-resort-and-spa/,,Curio Collection by Hilton,Curio Collection by Hilton,Brand,37.9317792,23.1462182,"Palea EO Athinon Korinthou, Agii Theodori 200 03, Greece",google_places,PLACE_DETAILS,ChIJ5a3kxfc4oBQR9Yfc_XOOaKQ,establishment;lodging;point_of_interest;spa,False,PLACES:athibqq isla brown corinthia resort spa Curio Collection by Hilton Hotel
"Koi Resort Saint Kitts, Curio Collection by Hilton",https://www.hilton.com/en/hotels/skbkrqq-koi-resort-saint-kitts/,,Curio Collection by Hilton,Curio Collection by Hilton,Brand,17.3085571,-62.6928284,"100 Koi Resort Drive, Basseterre, St Kitts & Nevis",google_places,PLACE_DETAILS,ChIJLQtOdNQbEowR4FDVYJafgE0,establishment;lodging;point_of_interest,False,PLACES:skbkrqq koi resort saint kitts Curio Collection by Hilton Hotel
"La Festa Phu Quoc, Curio Collection by Hilton",https://www.hilton.com/en/hotels/pqcpqqq-la-festa-phu-quoc/,,Curio Collection by Hilton,Curio Collection by Hilton,Brand,10.0295567,104.0075604,"Sunset Town, An Thới, Phú Quốc, Kiên Giang 91000, Vietnam",google_places,PLACE_DETAILS,ChIJc4_lgKCWpzERfX9ic42Xi-s,establishment;lodging;point_of_interest;spa,False,PLACES:pqcpqqq la festa phu quoc Curio Collection by Hilton Hotel
"La Quinta Resort & Club, Curio Collection by Hilton",https://www.hilton.com/en/hotels/psplqqq-la-quinta-resort-and-club/,,Curio Collection by Hilton,Curio Collection by Hilton,Brand,33.688009,-116.3105508,"49-499 Eisenhower Dr, La Quinta, CA 92253, USA",google_places,PLACE_DETAILS,ChIJNwsbrqT42oARVELD3TNEVmc,establishment;lodging;point_of_interest,False,PLACES:psplqqq la quinta resort club Curio Collection by Hilton Hotel
"Mangias Santa Teresa Sardinia, Curio Collection by Hilton",https://www.hilton.com/en/hotels/olbccqq-mangias-santa-teresa-sardinia/,,Curio Collection by Hilton,Curio Collection by Hilton,Brand,41.2219744,9.1668079,"Via Antares, 1, 07028 Santa Teresa Gallura Provincia della Gallura Nord-Est Sardegna, Italy",google_places,PLACE_DETAILS,ChIJw9-siunh2xIRpxjKMgwanCc,establishment;lodging;point_of_interest;spa,False,PLACES:olbccqq mangias santa teresa sardinia Curio Collection by Hilton Hotel
"Mangrove Beach Corendon Curacao All-Inclusive Resort, Curio",https://www.hilton.com/en/hotels/curryqq-mangrove-beach-corendon-curacao-all-inclusive-resort/,,Curio Collection by Hilton,Curio Collection by Hilton,Brand,12.1089564,-68.9424867,"31 Pater Euwensweg, Willemstad, Curaçao",google_places,PLACE_DETAILS,ChIJiVv73fiChI4REgECl1BzOGw,establishment;lodging;point_of_interest,False,PLACES:curryqq mangrove beach corendon curacao all inclusive resort Curio Collection by Hilton Hotel
"SAii Lagoon Maldives, Curio Collection by Hilton",https://www.hilton.com/en/hotels/mlegsqq-saii-lagoon-maldives/,,Curio Collection by Hilton,Curio Collection by Hilton,Brand,4.1205428,73.4675091,"Eh`mafushi South, Malé, Maldives",google_places,PLACE_DETAILS,ChIJR9rfAfV9PzsRVfw0W6mLTD8,establishment;lodging;point_of_interest;spa,False,PLACES:mlegsqq saii lagoon maldives Curio Collection by Hilton Hotel
"Sea Breeze Santorini Beach Resort, Curio Collection",https://www.hilton.com/en/hotels/jtrsbqq-sea-breeze-santorini-beach-resort,,Curio Collection by Hilton,Curio Collection by Hilton,Brand,36.3347252,25.4424381,"Agios Georgios, Perivolos, Exomitis 847 03, Greece",google_places,PLACE_DETAILS,ChIJRSE2qY_PmRQRApfXMU-bKpM,establishment;lodging;point_of_interest;spa,False,PLACES:jtrsbqq sea breeze santorini beach resort Curio Collection by Hilton Hotel
"Semeli Coast Mykonos, Curio Collection by Hilton",https://www.hilton.com/en/hotels/jmkmbqq-semeli-coast-mykonos,,Curio Collection by Hilton,Curio Collection by Hilton,Brand,37.4731318,25.4277428,"Merchia Beach, Mikonos 846 00, Greece",google_places,PLACE_DETAILS,ChIJM6lfdhHHohQRrWO8TDYCpfw,establishment;lodging;point_of_interest;spa,False,PLACES:jmkmbqq semeli coast mykonos Curio Collection by Hilton Hotel
"Skaneateles Fields Resort & Spa, Curio Collection by Hilton",https://www.hilton.com/en/hotels/syrslqq-skaneateles-fields-resort-and-spa,,Curio Collection by Hilton,Curio Collection by Hilton,Brand,42.973683,-76.431214,"1000 Mottville Rd, Skaneateles, NY 13152, USA",google_places,PLACE_DETAILS,ChIJ3RSGNqQB2okR4D0uusKphyg,establishment;lodging;point_of_interest,False,PLACES:syrslqq skaneateles fields resort spa Curio Collection by Hilton Hotel
"Sulia House Porto Rotondo, Curio Collection by Hilton",https://www.hilton.com/en/hotels/olbprqq-sulia-house-porto-rotondo,,Curio Collection by Hilton,Curio Collection by Hilton,Brand,41.0057474,9.5354467,"Via Monte Ladu, 36, 07026 Porto Rotondo Provincia della Gallura Nord-Est Sardegna, Italy",google_places,PLACE_DETAILS,ChIJDUWKPM1J2RIRzeTS2pJawW0,establishment;lodging;point_of_interest;spa,False,PLACES:olbprqq sulia house porto rotondo Curio Collection by Hilton Hotel
"The Club Cala San Miguel Hotel Ibiza, Curio Collection by Hilton",https://www.hilton.com/en/hotels/ibzseqq-cala-san-miguel-ibiza-resort,,Curio Collection by Hilton,Curio Collection by Hilton,Brand,39.08010780000001,1.4416864,"Puerto San Miguel, 26, 07815 Sant Joan de Labritja, Illes Balears, Spain",google_places,PLACE_DETAILS,ChIJH-4cyPU7mRIR-YzoCH8AoE0,establishment;lodging;point_of_interest,False,PLACES:ibzseqq cala san miguel ibiza resort Curio Collection by Hilton Hotel
"The Hiatus Clearwater Beach, Curio Collection by Hilton",https://www.hilton.com/en/hotels/tparkqq-the-hiatus-clearwater-beach,,Curio Collection by Hilton,Curio Collection by Hilton,Brand,27.971479,-82.8294739,"385 S Gulfview Blvd, Clearwater Beach, FL 33767, USA",google_places,PLACE_DETAILS,ChIJuSNaKBL3wogRqUzHcbCBNTQ,establishment;lodging;point_of_interest,False,PLACES:tparkqq hiatus clearwater beach Curio Collection by Hilton Hotel
"The Reach Key West, Curio Collection by Hilton",https://www.hilton.com/en/hotels/eywqqqq-the-reach-key-west/,,Curio Collection by Hilton,Curio Collection by Hilton,Brand,24.547537,-81.794242,"1435 Simonton St, Key West, FL 33040, USA",google_places,PLACE_DETAILS,ChIJxUn7FfG30YgRIE2azecE-n0,establishment;lodging;point_of_interest,False,PLACES:eywqqqq reach key west Curio Collection by Hilton Hotel
"The Rif at Mangrove Beach All-Inclusive, Curio by Hilton",https://www.hilton.com/en/hotels/curmgqq-the-rif-at-mangrove-beach-corendon-curacao-all-inclusive/,,Curio Collection by Hilton,Curio Collection by Hilton,Brand,12.1089564,-68.9424867,"31 Pater Euwensweg, Willemstad, Curaçao",google_places,PLACE_DETAILS,ChIJiVv73fiChI4REgECl1BzOGw,establishment;lodging;point_of_interest,False,PLACES:curmgqq rif mangrove beach corendon curacao all inclusive Curio Collection by Hilton Hotel
"The Royal Senses Resort Crete, Curio Collection by Hilton",https://www.hilton.com/en/hotels/herrsqq-the-royal-senses-resort-and-spa-crete/,,Curio Collection by Hilton,Curio Collection by Hilton,Brand,35.4167053,24.6579518,"Herakliou 58 km, Panormos 740 57, Greece",google_places,PLACE_DETAILS,ChIJl18V9_inmxQRvvif7R9cMH0,establishment;lodging;point_of_interest;spa,False,PLACES:herrsqq royal senses resort spa crete Curio Collection by Hilton Hotel
"The Scottsdale Resort and Spa, Curio Collection by Hilton",https://www.hilton.com/en/hotels/phxssqq-the-scottsdale-resort-and-spa/,,Curio Collection by Hilton,Curio Collection by Hilton,Brand,33.5484573,-111.9162323,"7700 E McCormick Pkwy, Scottsdale, AZ 85258, USA",google_places,PLACE_DETAILS,ChIJ3zVm7y8LK4cReLvdQvyQkqA,establishment;lodging;point_of_interest,False,PLACES:phxssqq scottsdale resort spa Curio Collection by Hilton Hotel
"The Singer Oceanfront Resort, Curio Collection by Hilton",https://www.hilton.com/en/hotels/pbisiqq-the-singer-oceanfront-resort/,,Curio Collection by Hilton,Curio Collection by Hilton,Brand,26.7910535,-80.03306959999999,"3700 N Ocean Dr, Riviera Beach, FL 33404, USA",google_places,PLACE_DETAILS,ChIJ7_YlkOzU2IgRI_h_VJyHP2o,establishment;lodging;point_of_interest,False,PLACES:pbisiqq singer oceanfront resort Curio Collection by Hilton Hotel
"The WB Abu Dhabi, Curio Collection by Hilton",https://www.hilton.com/en/hotels/auhwbqq-the-wb-abu-dhabi-hotel/,,Curio Collection by Hilton,Curio Collection by Hilton,Brand,24.4896045,54.5985148,Yas Island - YS4 - Abu Dhabi - United Arab Emirates,google_places,PLACE_DETAILS,ChIJlwuS98FFXj4RHlziQizgHi8,establishment;lodging;point_of_interest;spa,False,PLACES:auhwbqq wb abu dhabi hotel Curio Collection by Hilton Hotel
"The Woodlands Resort, Curio Collection by Hilton",https://www.hilton.com/en/hotels/iahwrqq-the-woodlands-resort/,,Curio Collection by Hilton,Curio Collection by Hilton,Brand,30.1449756,-95.473536,"2301 N Millbend Dr, The Woodlands, TX 77380, USA",google_places,PLACE_DETAILS,ChIJtRKe-as2R4YRoYiSSt9qMjg,establishment;lodging;point_of_interest,False,PLACES:iahwrqq woodlands resort Curio Collection by Hilton Hotel
"Virgin Hotels Las Vegas, Curio Collection by Hilton",https://www.hilton.com/en/hotels/lasvgqq-virgin-hotels-las-vegas/,,Curio Collection by Hilton,Curio Collection by Hilton,Brand,36.1087736,-115.1537273,"4455 Paradise Rd, Las Vegas, NV 89169, USA",google_places,PLACE_DETAILS,ChIJA2HmDz7FyIARzKm2AQzPr6U,establishment;lodging;point_of_interest,False,PLACES:lasvgqq virgin hotels las vegas Curio Collection by Hilton Hotel
"Waterstone Resort & Marina Boca Raton, Curio",https://www.hilton.com/en/hotels/bctbuqq-waterstone-resort-and-marina-boca-raton/,,Curio Collection by Hilton,Curio Collection by Hilton,Brand,26.339201,-80.07310199999999,"999 E Camino Real, Boca Raton, FL 33432, USA",google_places,PLACE_DETAILS,ChIJcS6rfT7i2IgRlvSf9156n1U,establishment;lodging;point_of_interest,False,PLACES:bctbuqq waterstone resort marina boca raton Curio Collection by Hilton Hotel
"Zachari Dunes on Mandalay Beach, Curio Collection by Hilton",https://www.hilton.com/en/hotels/sbazdqq-zachari-dunes-on-mandalay-beach/,,Curio Collection by Hilton,Curio Collection by Hilton,Brand,34.1788874,-119.235637,"2101 Mandalay Beach Rd, Oxnard, CA 93035, USA",google_places,PLACE_DETAILS,ChIJJ3MZjf5R6IARZsizFCirm7k,establishment;lodging;point_of_interest,False,PLACES:sbazdqq zachari dunes on mandalay beach Curio Collection by Hilton Hotel
Bahia Mar Fort Lauderdale Beach - a DoubleTree by Hilton,https://www.hilton.com/en/hotels/fllbmdt-bahia-mar-fort-lauderdale-beach/,,DoubleTree by Hilton,DoubleTree by Hilton,Brand,26.113539,-80.10620399999999,"801 Seabreeze Blvd, Fort Lauderdale, FL 33316, USA",google_places,PLACE_DETAILS,ChIJq81qhSUA2YgRMsuB_GK00j0,establishment;lodging;point_of_interest,False,PLACES:fllbmdt bahia mar fort lauderdale beach DoubleTree by Hilton Hotel
DoubleTree Beach Resort by Hilton Tampa Bay - North Redington Beach,https://www.hilton.com/en/hotels/nornhdt-doubletree-beach-resort-tampa-bay-north-redington-beach/,,DoubleTree by Hilton,DoubleTree by Hilton,Brand,27.8195316,-82.8255981,"17120 Gulf Blvd, North Redington Beach, FL 33708, USA",google_places,PLACE_DETAILS,ChIJOWpCGqb-wogRn4TFoVfSn9E,establishment;lodging;point_of_interest,False,PLACES:nornhdt doubletree beach resort tampa bay north redington beach DoubleTree by Hilton Hotel
DoubleTree Fallsview Resort & Spa by Hilton - Niagara Falls,https://www.hilton.com/en/hotels/iagdtdt-doubletree-fallsview-resort-and-spa-niagara-falls/,,DoubleTree by Hilton,DoubleTree by Hilton,Brand,43.0872336,-79.0840541,"6039 Fallsview Blvd, Niagara Falls, ON L2G 3V6, Canada",google_places,PLACE_DETAILS,ChIJ85X9axJD04kRfxVaNe3wBLg,establishment;lodging;point_of_interest,False,PLACES:iagdtdt doubletree fallsview resort spa niagara falls DoubleTree by Hilton Hotel
DoubleTree Resort Hollywood Beach,https://www.hilton.com/en/hotels/hwofldt-doubletree-resort-hollywood-beach/,,DoubleTree by Hilton,DoubleTree by Hilton,Brand,25.9874362,-80.12003480000001,"4000 S Ocean Dr, Hollywood, FL 33019, USA",google_places,PLACE_DETAILS,ChIJTR-Z4F-r2YgRN38lvCEOIJY,establishment;lodging;point_of_interest,False,PLACES:hwofldt doubletree resort hollywood beach DoubleTree by Hilton Hotel
DoubleTree Resort by Hilton Fiji - Sonaisali Island,https://www.hilton.com/en/hotels/nansidi-doubletree-resort-fiji-sonaisali-island/,,DoubleTree by Hilton,DoubleTree by Hilton,Brand,-17.8309397,177.3563117,"Naisali Island, 5994+H6F, Nadi, Fiji",google_places,PLACE_DETAILS,ChIJx7FjdmZFF24RtYDihWrUXgw,establishment;lodging;point_of_interest;spa,False,PLACES:nansidi doubletree resort fiji sonaisali island DoubleTree by Hilton Hotel
DoubleTree Resort by Hilton Grand Key - Key West,https://www.hilton.com/en/hotels/eywdtdt-doubletree-resort-grand-key-key-west/,,DoubleTree by Hilton,DoubleTree by Hilton,Brand,24.5610487,-81.7514509,"3990 S Roosevelt Blvd, Key West, FL 33040, USA",google_places,PLACE_DETAILS,ChIJrZSQV2ux0YgRa0li6rvp24k,establishment;lodging;point_of_interest,False,PLACES:eywdtdt doubletree resort grand key key west DoubleTree by Hilton Hotel
DoubleTree Resort by Hilton Lancaster,https://www.hilton.com/en/hotels/lnswvdt-doubletree-resort-lancaster/,,DoubleTree by Hilton,DoubleTree by Hilton,Brand,39.9927967,-76.28769179999999,"2400 Willow Street Pike, Lancaster, PA 17602, USA",google_places,PLACE_DETAILS,ChIJCwKIp0MlxokRJ4DRj3gILnE,establishment;lodging;point_of_interest,False,PLACES:lnswvdt doubletree resort lancaster DoubleTree by Hilton Hotel
DoubleTree Resort by Hilton Paradise Valley - Scottsdale,https://www.hilton.com/en/hotels/phxsjdt-doubletree-resort-paradise-valley-scottsdale/,,DoubleTree by Hilton,DoubleTree by Hilton,Brand,33.5156562,-111.9249908,"5401 N Scottsdale Rd, Scottsdale, AZ 85250, USA",google_places,PLACE_DETAILS,ChIJV2hWgqALK4cR51l2R_qaKls,establishment;lodging;point_of_interest,False,PLACES:phxsjdt doubletree resort paradise valley scottsdale DoubleTree by Hilton Hotel
DoubleTree Resort by Hilton Penang,https://www.hilton.com/en/hotels/penmbdi-doubletree-resort-penang/,,DoubleTree by Hilton,DoubleTree by Hilton,Brand,5.477501699999999,100.2694728,"56, Jalan Low Yat, Puncak Ria, 11100 Batu Ferringhi, Pulau Pinang, Malaysia",google_places,PLACE_DETAILS,ChIJWwUeJVLdSjARaOZabSf8Dwc,establishment;lodging;point_of_interest,False,PLACES:penmbdi doubletree resort penang DoubleTree by Hilton Hotel
DoubleTree Suites by Hilton Orlando - Disney Springs Area,https://www.hilton.com/en/hotels/mcofhdt-doubletree-suites-orlando/,,DoubleTree by Hilton,DoubleTree by Hilton,Brand,28.379053,-81.50648609999999,"2305 Hotel Plaza Blvd, Lake Buena Vista, FL 32830, USA",google_places,PLACE_DETAILS,ChIJqeEOYSOA3YgR0LfyXvIUkxA,establishment;lodging;point_of_interest,False,PLACES:mcofhdt doubletree suites orlando DoubleTree by Hilton Hotel
DoubleTree by Hilton Alana - Waikiki Beach,https://www.hilton.com/en/hotels/hnlkadt-doubletree-alana-waikiki-beach/,,DoubleTree by Hilton,DoubleTree by Hilton,Brand,21.2857279,-157.834027,"1956 Ala Moana Blvd, Honolulu, HI 96815, USA",google_places,PLACE_DETAILS,ChIJ3akfpfRtAHwRKkLyTB-jxTw,establishment;lodging;point_of_interest,False,PLACES:hnlkadt doubletree alana waikiki beach DoubleTree by Hilton Hotel
DoubleTree by Hilton Antalya-Kemer All-Inclusive Resort,https://www.hilton.com/en/hotels/aytakdi-doubletree-antalya-kemer-all-inclusive-resort/,,DoubleTree by Hilton,DoubleTree by Hilton,Brand,36.6110064,30.5587614,"Yeni, Atatürk Blv. No:28/1, 07980 Kemer/Antalya, Türkiye",google_places,PLACE_DETAILS,ChIJh_3HGI63wxQR84nlcIGK4Mg,establishment;lodging;point_of_interest;spa,False,PLACES:aytakdi doubletree antalya kemer all inclusive resort DoubleTree by Hilton Hotel
DoubleTree by Hilton Bodrum Isil Club All-Inclusive Resort,https://www.hilton.com/en/hotels/bjvtrdi-doubletree-bodrum-isil-club-all-inclusive-resort/,,DoubleTree by Hilton,DoubleTree by Hilton,Brand,37.0854841,27.4772287,"Torba, Kaynar Mevkii No:11, 48400 Bodrum/Muğla, Türkiye",google_places,PLACE_DETAILS,ChIJEZ7NeSBpvhQRW7TrqslFbhY,establishment;lodging;point_of_interest;spa,False,PLACES:bjvtrdi doubletree bodrum isil club all inclusive resort DoubleTree by Hilton Hotel
DoubleTree by Hilton Damai Laut Resort,https://www.hilton.com/en/hotels/iphdldi-doubletree-damai-laut-resort/,,DoubleTree by Hilton,DoubleTree by Hilton,Brand,4.2590308,100.5914472,"7H5R+WH, Jalan Damai Laut, Manjung, 32200 Lumut, Perak, Malaysia",google_places,PLACE_DETAILS,ChIJr5AQqfDVNDARjSWhorUMxaQ,establishment;lodging;point_of_interest;spa,False,PLACES:iphdldi doubletree damai laut resort DoubleTree by Hilton Hotel
DoubleTree by Hilton Dubai - Jumeirah Beach,https://www.hilton.com/en/hotels/dxbthdi-doubletree-dubai-jumeirah-beach/,,DoubleTree by Hilton,DoubleTree by Hilton,Brand,25.0727075,55.1286297,The Walk - Marsa Dubai - Dubai Marina - Dubai - United Arab Emirates,google_places,PLACE_DETAILS,ChIJt-FjuVcTXz4RNrJCgQbutrQ,establishment;lodging;point_of_interest;spa,False,PLACES:dxbthdi doubletree dubai jumeirah beach DoubleTree by Hilton Hotel
DoubleTree by Hilton Goa - Arpora - Baga,https://www.hilton.com/en/hotels/goiabdi-doubletree-goa-arpora-baga/,,DoubleTree by Hilton,DoubleTree by Hilton,Brand,15.5756743,73.7618006,"Ximer Bardez, Arpora, Goa 403518, India",google_places,PLACE_DETAILS,ChIJSar0dZK-vzsRdujl15fvEEg,establishment;lodging;point_of_interest,False,PLACES:goiabdi doubletree goa arpora baga DoubleTree by Hilton Hotel
DoubleTree by Hilton Goa Panaji,https://www.hilton.com/en/hotels/goigddi-doubletree-goa-panaji/,,DoubleTree by Hilton,DoubleTree by Hilton,Brand,15.4964079,73.8836207,"Kadamba plateau, Old Goa Road, near Mandovi River, Panaji, Chimbel, Goa 403006, India",google_places,PLACE_DETAILS,ChIJb21vuhy_vzsR3gvQFK8FbRI,establishment;lodging;point_of_interest,False,PLACES:goigddi doubletree goa panaji DoubleTree by Hilton Hotel
DoubleTree by Hilton Golf Resort Palm Springs,https://www.hilton.com/en/hotels/pspdpdt-doubletree-golf-resort-palm-springs/,,DoubleTree by Hilton,DoubleTree by Hilton,Brand,33.8432146,-116.4775229,"67967 Vista Chino, Cathedral City, CA 92234, USA",google_places,PLACE_DETAILS,ChIJyx9ZkE8c24ARHmOgUnyTfFU,establishment;lodging;point_of_interest,False,PLACES:pspdpdt doubletree golf resort palm springs DoubleTree by Hilton Hotel
DoubleTree by Hilton Islantilla Beach Golf Resort,https://www.hilton.com/en/hotels/hevirdi-doubletree-islantilla-beach-golf-resort/,,DoubleTree by Hilton,DoubleTree by Hilton,Brand,37.2151283,-7.2308157,"P.º Barranco del Moro, 21440, Huelva, Spain",google_places,PLACE_DETAILS,ChIJrQ7Nzq0vEA0RABXQY_qPUxA,establishment;lodging;point_of_interest;spa,False,PLACES:hevirdi doubletree islantilla beach golf resort DoubleTree by Hilton Hotel
DoubleTree by Hilton La Torre Golf & Spa Resort,https://www.hilton.com/en/hotels/mjvltdi-doubletree-la-torre-golf-and-spa-resort/,,DoubleTree by Hilton,DoubleTree by Hilton,Brand,37.8239267,-1.0011707,"C. Anchoa, 6, 30709 Roldán, Murcia, Spain",google_places,PLACE_DETAILS,ChIJZfZi8R1uYw0RCa0hGLc6bWY,establishment;lodging;point_of_interest;spa,False,PLACES:mjvltdi doubletree la torre golf spa resort DoubleTree by Hilton Hotel
DoubleTree by Hilton Lagoa Azores,https://www.hilton.com/en/hotels/pdlladi-doubletree-lagoa-azores/,,DoubleTree by Hilton,DoubleTree by Hilton,Brand,37.74948029999999,-25.5810652,"Y Gama, Avenida da Inovação, 9560-421 Lagoa, Portugal",google_places,PLACE_DETAILS,ChIJBUmlLAPVXAsR7hHCGncCUpk,establishment;lodging;point_of_interest;spa,False,PLACES:pdlladi doubletree lagoa azores DoubleTree by Hilton Hotel
DoubleTree by Hilton Malta,https://www.hilton.com/en/hotels/mlaspdi-doubletree-malta/,,DoubleTree by Hilton,DoubleTree by Hilton,Brand,35.9541419,14.4181429,"Qawra, St Paul's Bay SPB 2402, Malta",google_places,PLACE_DETAILS,ChIJCRvldvlODhMRoen1Bv45VMs,establishment;lodging;point_of_interest;spa,False,PLACES:mlaspdi doubletree malta DoubleTree by Hilton Hotel
DoubleTree by Hilton Myrtle Beach,https://www.hilton.com/en/hotels/myrdtdt-doubletree-resort-myrtle-beach-oceanfront/,,DoubleTree by Hilton,DoubleTree by Hilton,Brand,33.6575762,-78.9196134,"3200 S Ocean Blvd, Myrtle Beach, SC 29577, USA",google_places,PLACE_DETAILS,ChIJrTbJ8fxpAIkROOiIBAYQg3w,establishment;lodging;point_of_interest,False,PLACES:myrdtdt doubletree resort myrtle beach oceanfront DoubleTree by Hilton Hotel
DoubleTree by Hilton Noumea Ilot Maitre Resort,https://www.hilton.com/en/hotels/noudidi-doubletree-noumea-ilot-maitre-resort/,,DoubleTree by Hilton,DoubleTree by Hilton,Brand,-22.3336955,166.4100387,"Ilot Maitre, Nouméa 98800, New Caledonia",google_places,PLACE_DETAILS,ChIJV2990ODhJ2wRsnsXplhgcyQ,establishment;lodging;point_of_interest,False,PLACES:noudidi doubletree noumea ilot maitre resort DoubleTree by Hilton Hotel
DoubleTree by Hilton Ocean Point Resort & Spa - North Miami,https://www.hilton.com/en/hotels/miaopdt-doubletree-resort-and-spa-ocean-point-north-miami-beach/,,DoubleTree by Hilton,DoubleTree by Hilton,Brand,25.9369408,-80.120708,"17375 Collins Ave, North Miami Beach, FL 33160, USA",google_places,PLACE_DETAILS,ChIJw_Zshx-t2YgRZiR01xVpvGg,establishment;lodging;point_of_interest,False,PLACES:miaopdt doubletree resort spa ocean point north miami beach DoubleTree by Hilton Hotel
DoubleTree by Hilton Okinawa Chatan Resort,https://www.hilton.com/en/hotels/okadidi-doubletree-okinawa-chatan-resort/,,DoubleTree by Hilton,DoubleTree by Hilton,Brand,26.3177482,127.753812,"43 Mihama, Chatan, Nakagami District, Okinawa 904-0115, Japan",google_places,PLACE_DETAILS,ChIJgUBxrw8T5TQRX2J-HxGS3P8,establishment;lodging;point_of_interest,False,PLACES:okadidi doubletree okinawa chatan resort DoubleTree by Hilton Hotel
DoubleTree by Hilton Orlando at SeaWorld,https://www.hilton.com/en/hotels/mcosrdt-doubletree-orlando-at-seaworld/,,DoubleTree by Hilton,DoubleTree by Hilton,Brand,28.4179849,-81.4628506,"10100 International Dr, Orlando, FL 32821, USA",google_places,PLACE_DETAILS,ChIJt4BMcDB-54gRtG5tSWtwu9I,establishment;lodging;point_of_interest,False,PLACES:mcosrdt doubletree orlando seaworld DoubleTree by Hilton Hotel
DoubleTree by Hilton Park City - The Yarrow,https://www.hilton.com/en/hotels/slcywdt-doubletree-park-city-the-yarrow/,,DoubleTree by Hilton,DoubleTree by Hilton,Brand,40.6602007,-111.5078643,"1800 Park Ave, Park City, UT 84060, USA",google_places,PLACE_DETAILS,ChIJUbfUX2RtUocRQ9zAlVkz6Ew,establishment;lodging;point_of_interest,False,PLACES:slcywdt doubletree park city yarrow DoubleTree by Hilton Hotel
DoubleTree by Hilton Phuket Banthai Resort,https://www.hilton.com/en/hotels/hktpadi-doubletree-phuket-banthai-resort/,,DoubleTree by Hilton,DoubleTree by Hilton,Brand,7.890752099999999,98.2947415,"94 Thaweewong Rd, Tambon Patong, Amphoe Kathu, Chang Wat Phuket 83150, Thailand",google_places,PLACE_DETAILS,ChIJA_nZ_Hs7UDARSHw9HqxfBvc,establishment;lodging;point_of_interest,False,PLACES:hktpadi doubletree phuket banthai resort DoubleTree by Hilton Hotel
DoubleTree by Hilton Quebec Resort,https://www.hilton.com/en/hotels/yqbqcdt-doubletree-quebec-resort/,,DoubleTree by Hilton,DoubleTree by Hilton,Brand,46.8832341,-71.3065036,"7900 Rue du Marigot, Québec, QC G1G 6T8, Canada",google_places,PLACE_DETAILS,ChIJt4tGtNyiuEwR8Q8gfUSIli0,establishment;lodging;point_of_interest,False,PLACES:yqbqcdt doubletree quebec resort DoubleTree by Hilton Hotel
DoubleTree by Hilton Resort & Spa Marjan Island,https://www.hilton.com/en/hotels/rktmidi-doubletree-resort-and-spa-marjan-island/,,DoubleTree by Hilton,DoubleTree by Hilton,Brand,25.6695938,55.7438747,Al Marjan Is Blvd - Jazeerat Al Marjan - Ras Al Khaimah - United Arab Emirates,google_places,PLACE_DETAILS,ChIJiy7wPpQJ9j4R9I11Sq_feII,establishment;lodging;point_of_interest;spa,False,PLACES:rktmidi doubletree resort spa marjan island DoubleTree by Hilton Hotel
DoubleTree by Hilton San Juan,https://www.hilton.com/en/hotels/sjudtdt-doubletree-san-juan/,,DoubleTree by Hilton,DoubleTree by Hilton,Brand,18.4510219,-66.064379,"105, 3529 Avenida José de Diego, San Juan, 00911, Puerto Rico",google_places,PLACE_DETAILS,ChIJWezhytxuA4wRmNi83qdU-Vk,establishment;lodging;point_of_interest,False,PLACES:sjudtdt doubletree san juan DoubleTree by Hilton Hotel
DoubleTree by Hilton Seychelles - Allamanda Resort & Spa,https://www.hilton.com/en/hotels/sezdtdi-doubletree-seychelles-allamanda-resort-and-spa/,,DoubleTree by Hilton,DoubleTree by Hilton,Brand,-4.7768207,55.5234327,"Anse Forbans, S Coast Rd, Seychelles",google_places,PLACE_DETAILS,ChIJ30ADl-wqHiMRTF2EIDQZhyE,establishment;lodging;point_of_interest;spa,False,PLACES:sezdtdi doubletree seychelles allamanda resort spa DoubleTree by Hilton Hotel
DoubleTree by Hilton Shanwei,https://www.hilton.com/en/hotels/swadidi-doubletree-shanwei/,,DoubleTree by Hilton,DoubleTree by Hilton,Brand,22.7930188,115.2963786,"沁海小区, 48 瀚海大道, 市城区, Shan Wei Shi, Guang Dong Sheng, China, 441500",google_places,PLACE_DETAILS,ChIJ-bCB8zZ1BTQRiUsPofHAe5Y,establishment;lodging;point_of_interest,False,PLACES:swadidi doubletree shanwei DoubleTree by Hilton Hotel
DoubleTree by Hilton Sharm El Sheikh - Sharks Bay Resort,https://www.hilton.com/en/hotels/sshsbdi-doubletree-sharm-el-sheikh-sharks-bay-resort/,,DoubleTree by Hilton,DoubleTree by Hilton,Brand,27.9678564,34.3993514,"Sharks Bay, Ra's Nasrani, Concourd Hotel Entrance, أول شرم الشيخ، محافظة جنوب سيناء 46628, Egypt",google_places,PLACE_DETAILS,ChIJhSe5-Pq1QRQRH9ax1zp1MgM,establishment;lodging;point_of_interest,False,PLACES:sshsbdi doubletree sharm el sheikh sharks bay resort DoubleTree by Hilton Hotel
DoubleTree by Hilton Weerawila Rajawarna Resort,https://www.hilton.com/en/hotels/wrzrjdi-doubletree-weerawila-rajawarna-resort/,,DoubleTree by Hilton,DoubleTree by Hilton,Brand,6.282992999999999,81.2320366,"Weerawila Watta, Wirawila 82632, Sri Lanka",google_places,PLACE_DETAILS,ChIJp5Hp9XKf5joRkJee5or-DDU,establishment;lodging;point_of_interest,False,PLACES:wrzrjdi doubletree weerawila rajawarna resort DoubleTree by Hilton Hotel
Doubletree by Hilton Mazatlan,https://www.hilton.com/en/hotels/mztdtdt-doubletree-mazatlan/,,DoubleTree by Hilton,DoubleTree by Hilton,Brand,23.2547581,-106.45882,"Av Camarón Sábalo 905, Zona Costera, El Encanto, 82148 Mazatlán, Sin., Mexico",google_places,PLACE_DETAILS,ChIJ17R8UrFUn4YRJCZwUpVV4hY,establishment;lodging;point_of_interest,False,PLACES:mztdtdt doubletree mazatlan DoubleTree by Hilton Hotel
Grand Naniloa Hotel Hilo - a DoubleTree by Hilton,https://www.hilton.com/en/hotels/itohndt-grand-naniloa-hotel-hilo/,,DoubleTree by Hilton,DoubleTree by Hilton,Brand,19.7295945,-155.064893,"93 Banyan Dr, Hilo, HI 96720, USA",google_places,PLACE_DETAILS,ChIJKWsHxptMUnkRxi4I8Z41mxQ,establishment;lodging;point_of_interest,False,PLACES:itohndt grand naniloa hotel hilo DoubleTree by Hilton Hotel
Highline Vail - a DoubleTree by Hilton,https://www.hilton.com/en/hotels/egevcdt-highline-vail/,,DoubleTree by Hilton,DoubleTree by Hilton,Brand,39.6295657,-106.4199012,"2211 N Frontage Rd W, Vail, CO 81657, USA",google_places,PLACE_DETAILS,ChIJfVLDIKNwaocRh-FMWVDT9Y4,establishment;lodging;point_of_interest,False,PLACES:egevcdt highline vail DoubleTree by Hilton Hotel
Embassy Suites St Augustine Beach Oceanfront Resort,https://www.hilton.com/en/hotels/ustboes-embassy-suites-st-augustine-beach-oceanfront-resort/,,Embassy Suites by Hilton,Embassy Suites by Hilton,Brand,29.8585072,-81.26636959999999,"300 A1A Beach Blvd, St. Augustine, FL 32080, USA",google_places,PLACE_DETAILS,ChIJlX5muXqd5ogRUR2vZszNBHw,establishment;lodging;point_of_interest,False,PLACES:ustboes embassy suites st augustine beach oceanfront resort Embassy Suites by Hilton Hotel
Embassy Suites by Hilton Charlotte-Concord-Golf Resort & Spa,https://www.hilton.com/en/hotels/cltcces-embassy-suites-charlotte-concord-golf-resort-and-spa/,,Embassy Suites by Hilton,Embassy Suites by Hilton,Brand,35.3652602,-80.7015377,"5400 John Q. Hammons Dr NW, Concord, NC 28027, USA",google_places,PLACE_DETAILS,ChIJcS_exEAbVIgRfBUIlUpcFQ4,establishment;lodging;point_of_interest,False,PLACES:cltcces embassy suites charlotte concord golf resort spa Embassy Suites by Hilton Hotel
Embassy Suites by Hilton Deerfield Beach Resort & Spa,https://www.hilton.com/en/hotels/deefles-embassy-suites-deerfield-beach-resort-and-spa/,,Embassy Suites by Hilton,Embassy Suites by Hilton,Brand,26.3059944,-80.077164,"950 S Ocean Dr, Deerfield Beach, FL 33441, USA",google_places,PLACE_DETAILS,ChIJSQ5eRovi2IgRSbbtPOEa_cs,establishment;lodging;point_of_interest,False,PLACES:deefles embassy suites deerfield beach resort spa Embassy Suites by Hilton Hotel
Embassy Suites by Hilton Dorado del Mar Beach Resort,https://www.hilton.com/en/hotels/dorpres-embassy-suites-dorado-del-mar-beach-resort/,,Embassy Suites by Hilton,Embassy Suites by Hilton,Brand,18.477351,-66.273601,"201 Dorado Del Mar Blvd, Dorado, 00646, Puerto Rico",google_places,PLACE_DETAILS,ChIJD1igL2MTA4wRvLul9Kz-G4Y,establishment;lodging;point_of_interest,False,PLACES:dorpres embassy suites dorado del mar beach resort Embassy Suites by Hilton Hotel
Embassy Suites by Hilton Greenville Golf Resort & Conf Ctr,https://www.hilton.com/en/hotels/gspeses-embassy-suites-greenville-golf-resort-and-conference-center/,,Embassy Suites by Hilton,Embassy Suites by Hilton,Brand,34.8255971,-82.3239054,"670 Verdae Blvd, Greenville, SC 29607, USA",google_places,PLACE_DETAILS,ChIJyW7oWRYvWIgRz9SOC04AJ6M,establishment;lodging;point_of_interest,False,PLACES:gspeses embassy suites greenville golf resort conference center Embassy Suites by Hilton Hotel
Embassy Suites by Hilton Gulf Shores Beach Resort,https://www.hilton.com/en/hotels/gufbees-embassy-suites-gulf-shores-beach-resort/,,Embassy Suites by Hilton,Embassy Suites by Hilton,Brand,30.248753,-87.69099,"112 W Beach Blvd, Gulf Shores, AL 36542, USA",google_places,PLACE_DETAILS,ChIJU8UuybYEmogRpQFeB9_WACc,establishment;lodging;point_of_interest,False,PLACES:gufbees embassy suites gulf shores beach resort Embassy Suites by Hilton Hotel
Embassy Suites by Hilton Myrtle Beach Oceanfront Resort,https://www.hilton.com/en/hotels/myreses-embassy-suites-myrtle-beach-oceanfront-resort/,,Embassy Suites by Hilton,Embassy Suites by Hilton,Brand,33.7694104,-78.77504909999999,"10000 Beach Club Dr, Myrtle Beach, SC 29572, USA",google_places,PLACE_DETAILS,ChIJvbEGTVlkAIkR1h8HhEMAiQw,establishment;lodging;point_of_interest,False,PLACES:myreses embassy suites myrtle beach oceanfront resort Embassy Suites by Hilton Hotel
Embassy Suites by Hilton Orlando Lake Buena Vista Resort,https://www.hilton.com/en/hotels/mcowdes-embassy-suites-orlando-lake-buena-vista-resort/,,Embassy Suites by Hilton,Embassy Suites by Hilton,Brand,28.3904974,-81.49453009999999,"8100 Lake St, Orlando, FL 32836, USA",google_places,PLACE_DETAILS,ChIJ88H9RxOA3YgR8lU1SHnm1oM,establishment;lodging;point_of_interest,False,PLACES:mcowdes embassy suites orlando lake buena vista resort Embassy Suites by Hilton Hotel
Embassy Suites by Hilton Orlando Sunset Walk,https://www.hilton.com/en/hotels/mcostes-embassy-suites-orlando-sunset-walk/,,Embassy Suites by Hilton,Embassy Suites by Hilton,Brand,28.3409411,-81.6121106,"3151 Sunset Walk Dr, Kissimmee, FL 34747, USA",google_places,PLACE_DETAILS,ChIJxQsIpBl83YgRxhd0Q-K_39M,establishment;lodging;point_of_interest,False,PLACES:mcostes embassy suites orlando sunset walk Embassy Suites by Hilton Hotel
Embassy Suites by Hilton Panama City Beach Resort,https://www.hilton.com/en/hotels/ecpppes-embassy-suites-panama-city-beach-resort/,,Embassy Suites by Hilton,Embassy Suites by Hilton,Brand,30.21553729999999,-85.87524189999999,"16006 Front Beach Rd, Panama City Beach, FL 32413, USA",google_places,PLACE_DETAILS,ChIJzyuUvGmNk4gRjM_V-uqMur0,establishment;lodging;point_of_interest,False,PLACES:ecpppes embassy suites panama city beach resort Embassy Suites by Hilton Hotel
Embassy Suites by Hilton Scottsdale Resort,https://www.hilton.com/en/hotels/scteses-embassy-suites-scottsdale-resort/,,Embassy Suites by Hilton,Embassy Suites by Hilton,Brand,33.5099046,-111.9250211,"5001 N Scottsdale Rd, Scottsdale, AZ 85250, USA",google_places,PLACE_DETAILS,ChIJPXcsoKELK4cRmD5eqv-eFgc,establishment;lodging;point_of_interest,False,PLACES:scteses embassy suites scottsdale resort Embassy Suites by Hilton Hotel
Embassy Suites by Hilton Virginia Beach Oceanfront Resort,https://www.hilton.com/en/hotels/orfanes-embassy-suites-virginia-beach-oceanfront-resort/,,Embassy Suites by Hilton,Embassy Suites by Hilton,Brand,36.8692733,-75.980925,"4101 Atlantic Ave, Virginia Beach, VA 23451, USA",google_places,PLACE_DETAILS,ChIJByu1JV3puokRHbjSIkLrI8A,establishment;lodging;point_of_interest,False,PLACES:orfanes embassy suites virginia beach oceanfront resort Embassy Suites by Hilton Hotel
Embassy Suites by Hilton Waikiki Beach Walk,https://www.hilton.com/en/hotels/hnleses-embassy-suites-waikiki-beach-walk/,,Embassy Suites by Hilton,Embassy Suites by Hilton,Brand,21.2793123,-157.8316594,"201 Beach Walk, Honolulu, HI 96815, USA",google_places,PLACE_DETAILS,ChIJcUYoZHVyAHwR5_0ak60q6IY,establishment;lodging;point_of_interest,False,PLACES:hnleses embassy suites waikiki beach walk Embassy Suites by Hilton Hotel
Hampton by Hilton Grand Cayman Seven Mile Beach,https://www.hilton.com/en/hotels/gcmgchx-hampton-grand-cayman-seven-mile-beach/,,Hampton by Hilton,Hampton by Hilton,Brand,19.3171179,-81.3837444,"22 Piper Way, KY1-1201, Cayman Islands",google_places,PLACE_DETAILS,ChIJfWx8VVWGJY8RYvoo-e6cCd0,establishment;lodging;point_of_interest,False,PLACES:gcmgchx hampton grand cayman seven mile beach Hampton by Hilton Hotel
Hampton by Hilton Marjan Island,https://www.hilton.com/en/hotels/rktmahx-hampton-marjan-island/,,Hampton by Hilton,Hampton by Hilton,Brand,25.6779533,55.7402813,Al Marjan Is Blvd - Jazeerat Al Marjan - Ras Al Khaimah - United Arab Emirates,google_places,PLACE_DETAILS,ChIJ7XC-_eMJ9j4R7sKbPF6o5js,establishment;lodging;point_of_interest;spa,False,PLACES:rktmahx hampton marjan island Hampton by Hilton Hotel
Hilton Club The Beach Resort Sesoko,https://www.hilton.com/en/hotels/okasogv-hilton-club-the-beach-resort-sesoko/,,Hilton Grand Vacation Club,Hilton Grand Vacation Club,Brand,26.650998,127.860878,"Aza, 1081-4 Sesoko, Motobu, Kunigami District, Okinawa 905-0227, Japan",google_places,PLACE_DETAILS,ChIJV5o-M3j85DQRpdkLsoa0o3o,establishment;lodging;point_of_interest,False,PLACES:okasogv Hilton club beach resort sesoko Hilton Grand Vacation Club Hotel
Hilton Grand Vacations Club Anderson Ocean Myrtle Beach,https://www.hilton.com/en/hotels/myraogv-hilton-grand-vacations-club-anderson-ocean-myrtle-beach/,,Hilton Grand Vacation Club,Hilton Grand Vacation Club,Brand,33.7051004,-78.8644085,"2600 N Ocean Blvd, Myrtle Beach, SC 29577, USA",google_places,PLACE_DETAILS,ChIJsVedmu1oAIkR3k-5tiYcpOk,establishment;lodging;point_of_interest,False,PLACES:myraogv Hilton grand vacations club anderson ocean myrtle beach Hilton Grand Vacation Club Hotel
Hilton Grand Vacations Club Elara Center Strip Las Vegas,https://www.hilton.com/en/hotels/lascsgv-hilton-grand-vacations-club-elara-center-strip-las-vegas/,,Hilton Grand Vacation Club,Hilton Grand Vacation Club,Brand,36.1088102,-115.1683213,"80 E Harmon Ave, Las Vegas, NV 89109, USA",google_places,PLACE_DETAILS,ChIJjebzgjbEyIARyLX90AKMMUY,establishment;lodging;point_of_interest,False,PLACES:lascsgv Hilton grand vacations club elara center strip las vegas Hilton Grand Vacation Club Hotel
Hilton Grand Vacations Club Flamingo Las Vegas,https://www.hilton.com/en/hotels/lasflgv-hilton-grand-vacations-club-flamingo-las-vegas/,,Hilton Grand Vacation Club,Hilton Grand Vacation Club,Brand,36.116641,-115.1688495,"3575 Las Vegas Blvd S, Las Vegas, NV 89109, USA",google_places,PLACE_DETAILS,ChIJKzcCDznEyIAR3x6ANnIeLbk,establishment;lodging;point_of_interest,False,PLACES:lasflgv Hilton grand vacations club flamingo las vegas Hilton Grand Vacation Club Hotel
Hilton Grand Vacations Club Grand Waikikian Honolulu,https://www.hilton.com/en/hotels/hnlgwgv-hilton-grand-vacations-club-grand-waikikian-honolulu/,,Hilton Grand Vacation Club,Hilton Grand Vacation Club,Brand,21.284111,-157.8373602,"1811 Ala Moana Blvd, Honolulu, HI 96815, USA",google_places,PLACE_DETAILS,ChIJke0ExfVtAHwR-emc1Ve6c1Y,establishment;lodging;point_of_interest,False,PLACES:hnlgwgv Hilton grand vacations club grand waikikian honolulu Hilton Grand Vacation Club Hotel
Hilton Grand Vacations Club Hokulani Waikiki Honolulu,https://www.hilton.com/en/hotels/hnlwbgv-hilton-grand-vacations-club-hokulani-waikiki-honolulu/,,Hilton Grand Vacation Club,Hilton Grand Vacation Club,Brand,21.2799716,-157.8303756,"2181 Kalākaua Ave, Honolulu, HI 96815, USA",google_places,PLACE_DETAILS,ChIJsfPdfXVyAHwRdJ7qlNU7BQw,establishment;lodging;point_of_interest,False,PLACES:hnlwbgv Hilton grand vacations club hokulani waikiki honolulu Hilton Grand Vacation Club Hotel
Hilton Grand Vacations Club Kings' Land Waikoloa,https://www.hilton.com/en/hotels/koaklgv-hilton-grand-vacations-club-kings-land-waikoloa/,,Hilton Grand Vacation Club,Hilton Grand Vacation Club,Brand,19.9257289,-155.8660939,"69-699 Waikōloa Beach Dr, Waikoloa Village, HI 96738, USA",google_places,PLACE_DETAILS,ChIJxcDfb_h3VHkRPZiRNXm3woc,establishment;lodging;point_of_interest,False,PLACES:koaklgv Hilton grand vacations club kings land waikoloa Hilton Grand Vacation Club Hotel
Hilton Grand Vacations Club Kohala Suites Waikoloa,https://www.hilton.com/en/hotels/koawbgv-hilton-grand-vacations-club-kohala-suites-waikoloa/,,Hilton Grand Vacation Club,Hilton Grand Vacation Club,Brand,19.9257289,-155.8660939,"69-699 Waikōloa Beach Dr, Waikoloa Village, HI 96738, USA",google_places,PLACE_DETAILS,ChIJxcDfb_h3VHkRPZiRNXm3woc,establishment;lodging;point_of_interest,False,PLACES:koawbgv Hilton grand vacations club kohala suites waikoloa Hilton Grand Vacation Club Hotel
Hilton Grand Vacations Club La Pacifica Los Cabos,https://www.hilton.com/en/hotels/sjdgvgv-hilton-grand-vacations-club-la-pacifica-los-cabos/,,Hilton Grand Vacation Club,Hilton Grand Vacation Club,Brand,22.9819107,-109.7643094,"Carretera Transpeninsular Km 19.5 Los Cabos, Tourist Corridor, 23400 San José del Cabo, B.C.S., Mexico",google_places,PLACE_DETAILS,ChIJsQhrth5Or4YRPUQ9tVpOf3w,establishment;lodging;point_of_interest,False,PLACES:sjdgvgv Hilton grand vacations club la pacifica los cabos Hilton Grand Vacation Club Hotel
Hilton Grand Vacations Club Las Palmeras Orlando,https://www.hilton.com/en/hotels/mcoubgv-hilton-grand-vacations-club-las-palmeras-orlando/,,Hilton Grand Vacation Club,Hilton Grand Vacation Club,Brand,28.4339343,-81.4594745,"9501 Universal Blvd, Orlando, FL 32819, USA",google_places,PLACE_DETAILS,ChIJYdWQ30V-54gRx8nabwefYLw,establishment;lodging;point_of_interest,False,PLACES:mcoubgv Hilton grand vacations club las palmeras orlando Hilton Grand Vacation Club Hotel
Hilton Grand Vacations Club MarBrisa Carlsbad,https://www.hilton.com/en/hotels/sanmbgv-hilton-grand-vacations-club-marbrisa-carlsbad/,,Hilton Grand Vacation Club,Hilton Grand Vacation Club,Brand,33.1311406,-117.3109299,"1594 MarBrisa Cir, Carlsbad, CA 92008, USA",google_places,PLACE_DETAILS,ChIJZxD-4Zxz3IARKn2axGTOYjw,establishment;lodging;point_of_interest,False,PLACES:sanmbgv Hilton grand vacations club marbrisa carlsbad Hilton Grand Vacation Club Hotel
Hilton Grand Vacations Club Maui Bay Villas,https://www.hilton.com/en/hotels/oggmbgv-hilton-grand-vacations-club-maui-bay-villas,,Hilton Grand Vacation Club,Hilton Grand Vacation Club,Brand,20.7675948,-156.457551,"575 S Kihei Rd, Kihei, HI 96753, USA",google_places,PLACE_DETAILS,ChIJhRUh2NHRVHkRPIpALY9SeiA,establishment;lodging;point_of_interest,False,PLACES:oggmbgv Hilton grand vacations club maui bay villas Hilton Grand Vacation Club Hotel
Hilton Grand Vacations Club Ocean 22 Myrtle Beach,https://www.hilton.com/en/hotels/myrttgv-hilton-grand-vacations-club-ocean-22-myrtle-beach/,,Hilton Grand Vacation Club,Hilton Grand Vacation Club,Brand,33.7014415,-78.8693181,"2200 N Ocean Blvd, Myrtle Beach, SC 29577, USA",google_places,PLACE_DETAILS,ChIJhYlc_PBoAIkR3VJqWzyd2rc,establishment;lodging;point_of_interest,False,PLACES:myrttgv Hilton grand vacations club ocean 22 myrtle beach Hilton Grand Vacation Club Hotel
Hilton Grand Vacations Club Ocean Enclave Myrtle Beach,https://www.hilton.com/en/hotels/myroegv-hilton-grand-vacations-club-ocean-enclave-myrtle-beach/,,Hilton Grand Vacation Club,Hilton Grand Vacation Club,Brand,33.6966757,-78.8745065,"1600 N Ocean Blvd, Myrtle Beach, SC 29577, USA",google_places,PLACE_DETAILS,ChIJt2YsRXxpAIkRBFl7yayJZGI,establishment;lodging;point_of_interest,False,PLACES:myroegv Hilton grand vacations club ocean enclave myrtle beach Hilton Grand Vacation Club Hotel
Hilton Grand Vacations Club Ocean Oak Resort Hilton Head,https://www.hilton.com/en/hotels/hhhgvgv-hilton-grand-vacations-club-ocean-oak-resort-hilton-head/,,Hilton Grand Vacation Club,Hilton Grand Vacation Club,Brand,32.138259,-80.75899199999999,"41 S Forest Beach Dr, Hilton Head Island, SC 29928, USA",google_places,PLACE_DETAILS,ChIJqdCw8ht5_IgROLj6D7edERE,establishment;lodging;point_of_interest,False,PLACES:hhhgvgv Hilton grand vacations club ocean oak resort Hilton head Hilton Grand Vacation Club Hotel
Hilton Grand Vacations Club Ocean Tower Waikoloa Village,https://www.hilton.com/en/hotels/koaotgv-hilton-grand-vacations-club-ocean-tower-waikoloa-village/,,Hilton Grand Vacation Club,Hilton Grand Vacation Club,Brand,19.9281184,-155.8865389,"Ocean Tower, 69-425 Waikōloa Beach Dr, Waikoloa Village, HI 96738, USA",google_places,PLACE_DETAILS,ChIJi5wXLIl3VHkRox-bbFn9TtI,establishment;lodging;point_of_interest,False,PLACES:koaotgv Hilton grand vacations club ocean tower waikoloa village Hilton Grand Vacation Club Hotel
Hilton Grand Vacations Club Paradise Las Vegas,https://www.hilton.com/en/hotels/laslvgv-hilton-grand-vacations-club-paradise-las-vegas/,,Hilton Grand Vacation Club,Hilton Grand Vacation Club,Brand,36.1398788,-115.1608993,"2650 Las Vegas Blvd S, Las Vegas, NV 89109, USA",google_places,PLACE_DETAILS,ChIJ3y2MDjnEyIARGwx3B-xtpvM,establishment;lodging;point_of_interest,False,PLACES:laslvgv Hilton grand vacations club paradise las vegas Hilton Grand Vacation Club Hotel
Hilton Grand Vacations Club Parc Soleil Orlando,https://www.hilton.com/en/hotels/mcomdgv-hilton-grand-vacations-club-parc-soleil-orlando/,,Hilton Grand Vacation Club,Hilton Grand Vacation Club,Brand,28.4014001,-81.4936651,"11272 Desforges Ave, Orlando, FL 32836, USA",google_places,PLACE_DETAILS,ChIJHXFXRXOA3YgRPA65eJ4q9rY,establishment;lodging;point_of_interest,False,PLACES:mcomdgv Hilton grand vacations club parc soleil orlando Hilton Grand Vacation Club Hotel
Hilton Grand Vacations Club SeaWorld Orlando,https://www.hilton.com/en/hotels/orlswgv-hilton-grand-vacations-club-seaworld-orlando/,,Hilton Grand Vacation Club,Hilton Grand Vacation Club,Brand,28.4060036,-81.469303,"6924 Grand Vacations Way, Orlando, FL 32821, USA",google_places,PLACE_DETAILS,ChIJdQP2hCp-54gRsei-JMYFrdc,establishment;lodging;point_of_interest,False,PLACES:orlswgv Hilton grand vacations club seaworld orlando Hilton Grand Vacation Club Hotel
Hilton Grand Vacations Club Sunrise Lodge Park City,https://www.hilton.com/en/hotels/slcsegv-hilton-grand-vacations-club-sunrise-lodge-park-city/,,Hilton Grand Vacation Club,Hilton Grand Vacation Club,Brand,40.6827982,-111.5551651,"2307 W High Mountain Rd, Park City, UT 84098, USA",google_places,PLACE_DETAILS,ChIJL7hUw8xtUocR7uT3jbqDviw,establishment;lodging;point_of_interest,False,PLACES:slcsegv Hilton grand vacations club sunrise lodge park city Hilton Grand Vacation Club Hotel
Hilton Grand Vacations Club The Crane Barbados,https://www.hilton.com/en/hotels/bgicrgv-hilton-grand-vacations-club-the-crane-barbados/,,Hilton Grand Vacation Club,Hilton Grand Vacation Club,Brand,13.105914,-59.44510599999999,"The crane resort, Saint Philip BB18079Barbados",google_places,PLACE_DETAILS,ChIJKV6CKjeNQ4wR7JYHzfqCxcY,establishment;lodging;point_of_interest,False,PLACES:bgicrgv Hilton grand vacations club crane barbados Hilton Grand Vacation Club Hotel
Hilton Grand Vacations Club The Grand Islander Waikiki Honolulu,https://www.hilton.com/en/hotels/hnldrgv-hilton-grand-vacations-club-the-grand-islander-waikiki-honolulu,,Hilton Grand Vacation Club,Hilton Grand Vacation Club,Brand,21.282751,-157.83617,"2023 Kālia Rd, Honolulu, HI 96815, USA",google_places,PLACE_DETAILS,ChIJg-4Tr_VtAHwROApecUCKq6c,establishment;lodging;point_of_interest,False,PLACES:hnldrgv Hilton grand vacations club grand islander waikiki honolulu Hilton Grand Vacation Club Hotel
Hilton Grand Vacations Club Tuscany Village Orlando,https://www.hilton.com/en/hotels/orlingv-hilton-grand-vacations-club-tuscany-village-orlando,,Hilton Grand Vacation Club,Hilton Grand Vacation Club,Brand,28.386018,-81.48997039999999,"8122 Arrezzo Way, Orlando, FL 32821, USA",google_places,PLACE_DETAILS,ChIJR5FM7GmA3YgRl3yo3fKdMq4,establishment;lodging;point_of_interest,False,PLACES:orlingv Hilton grand vacations club tuscany village orlando Hilton Grand Vacation Club Hotel
Hilton Grand Vacations Club Valdoro Mountain Lodge Breckenridge,https://www.hilton.com/en/hotels/qkbvagv-hilton-grand-vacations-club-valdoro-mountain-lodge-breckenridge,,Hilton Grand Vacation Club,Hilton Grand Vacation Club,Brand,39.47718649999999,-106.0501627,"500 Village Rd, Breckenridge, CO 80424, USA",google_places,PLACE_DETAILS,ChIJ3eO602L2aocRamnowIZjwek,establishment;lodging;point_of_interest,False,PLACES:qkbvagv Hilton grand vacations club valdoro mountain lodge breckenridge Hilton Grand Vacation Club Hotel
Hilton Grand Vacations Club Whistler,https://www.hilton.com/en/hotels/ywswhgv-hilton-grand-vacations-club-whistler,,Hilton Grand Vacation Club,Hilton Grand Vacation Club,Brand,50.1179111,-122.9458304,"4580 Chateau Blvd, Whistler, BC V8E 0Z6, Canada",google_places,PLACE_DETAILS,ChIJgRqLyVIjh1QR4BkFCwQb118,establishment;lodging;point_of_interest,False,PLACES:ywswhgv Hilton grand vacations club whistler Hilton Grand Vacation Club Hotel
Hilton Grand Vacations Club at Hilton Hawaiian Village,https://www.hilton.com/en/hotels/hnlhwgv-hilton-grand-vacations-club-at-hilton-hawaiian-village/,,Hilton Grand Vacation Club,Hilton Grand Vacation Club,Brand,21.282751,-157.83617,"2023 Kālia Rd, Honolulu, HI 96815, USA",google_places,PLACE_DETAILS,ChIJg-4Tr_VtAHwROApecUCKq6c,establishment;lodging;point_of_interest,False,PLACES:hnlhwgv Hilton grand vacations club Hilton hawaiian village Hilton Grand Vacation Club Hotel
Hilton Grand Vacations Club in Sandestin Golf & Beach Resort,https://www.hilton.com/en/hotels/vpssagv-hilton-grand-vacations-club-in-sandestin-golf-and-beach-resort/,,Hilton Grand Vacation Club,Hilton Grand Vacation Club,Brand,30.384909,-86.32458919999999,"8626 Baytowne Ave, Destin, FL 32550, USA",google_places,PLACE_DETAILS,ChIJIZnfwbJekYgRg1lak4umCjI,establishment;lodging;point_of_interest,False,PLACES:vpssagv Hilton grand vacations club in sandestin golf beach resort Hilton Grand Vacation Club Hotel
Hilton Grand Vacations Club on the Las Vegas Strip,https://www.hilton.com/en/hotels/lasvsgv-hilton-grand-vacations-club-on-the-las-vegas-strip/,,Hilton Grand Vacation Club,Hilton Grand Vacation Club,Brand,36.1398788,-115.1608993,"2650 Las Vegas Blvd S, Las Vegas, NV 89109, USA",google_places,PLACE_DETAILS,ChIJ3y2MDjnEyIARGwx3B-xtpvM,establishment;lodging;point_of_interest,False,PLACES:lasvsgv Hilton grand vacations club on las vegas strip Hilton Grand Vacation Club Hotel
Hilton Vacation Club Aqua Sol Orlando West,https://www.hilton.com/en/hotels/mcotkgv-hilton-vacation-club-aqua-sol-orlando,,Hilton Grand Vacation Club,Hilton Grand Vacation Club,Brand,28.3496291,-81.6555676,"16666 Bali Blvd, Winter Garden, FL 34787, USA",google_places,PLACE_DETAILS,ChIJ8WdSUAB93YgRB4OPfGEaweI,establishment;lodging;point_of_interest,False,PLACES:mcotkgv Hilton vacation club aqua sol orlando Hilton Grand Vacation Club Hotel
Hilton Vacation Club Cabo Azul Los Cabos,https://www.hilton.com/en/hotels/sjdcagv-hilton-vacation-club-cabo-azul-los-cabos,,Hilton Grand Vacation Club,Hilton Grand Vacation Club,Brand,23.0462564,-109.6943177,"P.º Malecon San Jose Sn, Zona Hotelera, 23400 San José del Cabo, B.C.S., Mexico",google_places,PLACE_DETAILS,ChIJffgLKM_70YURHGF9tIp-HmY,establishment;lodging;point_of_interest,False,PLACES:sjdcagv Hilton vacation club cabo azul los cabos Hilton Grand Vacation Club Hotel
Hilton Vacation Club Cancun Resort Las Vegas,https://www.hilton.com/en/hotels/lascngv-hilton-vacation-club-cancun-resort-las-vegas,,Hilton Grand Vacation Club,Hilton Grand Vacation Club,Brand,36.0379668,-115.1734755,"8335 Las Vegas Blvd S, Las Vegas, NV 89123, USA",google_places,PLACE_DETAILS,ChIJj0A7FTnPyIARA1Ds9bQ5l8w,establishment;lodging;point_of_interest,False,PLACES:lascngv Hilton vacation club cancun resort las vegas Hilton Grand Vacation Club Hotel
Hilton Vacation Club Cypress Pointe Orlando,https://www.hilton.com/en/hotels/mcotrgv-hilton-vacation-club-cypress-pointe-orlando,,Hilton Grand Vacation Club,Hilton Grand Vacation Club,Brand,28.3901364,-81.5002318,"12118 Turtle Cay Cir, Orlando, FL 32836, USA",google_places,PLACE_DETAILS,ChIJywa7HzWA3YgRKPbRNksljcM,establishment;lodging;point_of_interest,False,PLACES:mcotrgv Hilton vacation club cypress pointe orlando Hilton Grand Vacation Club Hotel
Hilton Vacation Club Daytona Beach Regency,https://www.hilton.com/en/hotels/dabdbgv-hilton-vacation-club-daytona-beach-regency,,Hilton Grand Vacation Club,Hilton Grand Vacation Club,Brand,29.2330713,-81.01087849999999,"400 N Atlantic Ave, Daytona Beach, FL 32118, USA",google_places,PLACE_DETAILS,ChIJVZZ7REDa5ogRhtmT8h1NvoA,establishment;lodging;point_of_interest,False,PLACES:dabdbgv Hilton vacation club daytona beach regency Hilton Grand Vacation Club Hotel
Hilton Vacation Club Flamingo Beach St. Maarten,https://www.hilton.com/en/hotels/sxmflgv-hilton-vacation-club-flamingo-beach-st-maarten,,Hilton Grand Vacation Club,Hilton Grand Vacation Club,Brand,18.029088,-63.095538,"Pelican Key, Simpson Bay, 6 Billy Folly Road, Philipsburg, Sint Maarten",google_places,PLACE_DETAILS,ChIJle9J2qVuDowRKNaBhxo4KrY,establishment;lodging;point_of_interest,False,PLACES:sxmflgv Hilton vacation club flamingo beach st maarten Hilton Grand Vacation Club Hotel
Hilton Vacation Club Grand Beach Orlando,https://www.hilton.com/en/hotels/mcobegv-hilton-vacation-club-grand-beach-orlando,,Hilton Grand Vacation Club,Hilton Grand Vacation Club,Brand,28.3624869,-81.49642270000001,"8317 Lake Bryan Beach Blvd, Orlando, FL 32821, USA",google_places,PLACE_DETAILS,ChIJWR2FxRaA3YgR8ukSpm-Fk3g,establishment;lodging;point_of_interest,False,PLACES:mcobegv Hilton vacation club grand beach orlando Hilton Grand Vacation Club Hotel
Hilton Vacation Club Greensprings Williamsburg,https://www.hilton.com/en/hotels/phflugv-hilton-vacation-club-greensprings-williamsburg,,Hilton Grand Vacation Club,Hilton Grand Vacation Club,Brand,37.2656005,-76.7966287,"3500 Ludwell Pkwy, Williamsburg, VA 23188, USA",google_places,PLACE_DETAILS,ChIJQQGIXeWKsIkRENVbyLcZxlU,establishment;lodging;point_of_interest,False,PLACES:phflugv Hilton vacation club greensprings williamsburg Hilton Grand Vacation Club Hotel
Hilton Vacation Club Ka'anapali Beach Maui,https://www.hilton.com/en/hotels/jhmkagv-hilton-vacation-club-kaanapali-beach-maui,,Hilton Grand Vacation Club,Hilton Grand Vacation Club,Brand,20.9486315,-156.6907433,"104 Ka'Anapali Shores Place, Kaanapali, HI 96761, USA",google_places,PLACE_DETAILS,ChIJm30YyrfUqn4RAgBRBc8BTEg,establishment;lodging;point_of_interest,False,PLACES:jhmkagv Hilton vacation club kaanapali beach maui Hilton Grand Vacation Club Hotel
Hilton Vacation Club Lake Tahoe Resort South,https://www.hilton.com/en/hotels/tvlvagv-hilton-vacation-club-lake-tahoe-resort,,Hilton Grand Vacation Club,Hilton Grand Vacation Club,Brand,38.9498331,-119.9571228,"901 Ski Run Blvd, South Lake Tahoe, CA 96150, USA",google_places,PLACE_DETAILS,ChIJE2gxqQ6QmYARxFKJeIshwfA,establishment;lodging;point_of_interest,False,PLACES:tvlvagv Hilton vacation club lake tahoe resort Hilton Grand Vacation Club Hotel
Hilton Vacation Club Los Abrigados Resort & Spa Sedona,https://www.hilton.com/en/hotels/sdxplgv-hilton-vacation-club-los-abrigados-sedona,,Hilton Grand Vacation Club,Hilton Grand Vacation Club,Brand,34.8522845,-111.8276785,"4055 Navoti Dr, Sedona, AZ 86336, USA",google_places,PLACE_DETAILS,ChIJlcuUMcmgLYcRiNZtnx9_WFk,establishment;lodging;point_of_interest,False,PLACES:sdxplgv Hilton vacation club los abrigados sedona Hilton Grand Vacation Club Hotel
Hilton Vacation Club Mystic Dunes Orlando,https://www.hilton.com/en/hotels/ismmygv-hilton-vacation-club-mystic-dunes-orlando,,Hilton Grand Vacation Club,Hilton Grand Vacation Club,Brand,28.3173704,-81.6013263,"7600 Mystic Dunes Ln, Celebration, FL 34747, USA",google_places,PLACE_DETAILS,ChIJh_UnP1B53YgRfFE7KeQVOjs,establishment;lodging;point_of_interest,False,PLACES:ismmygv Hilton vacation club mystic dunes orlando Hilton Grand Vacation Club Hotel
Hilton Vacation Club Ocean Beach Club Virginia Beach,https://www.hilton.com/en/hotels/orfavgv-hilton-vacation-ocean-beach-club,,Hilton Grand Vacation Club,Hilton Grand Vacation Club,Brand,36.862537,-75.97871540000001,"3401 Atlantic Ave, Virginia Beach, VA 23451, USA",google_places,PLACE_DETAILS,ChIJvcHD0GjpuokRquCyDJqFr-g,establishment;lodging;point_of_interest,False,PLACES:orfavgv Hilton vacation ocean beach club Hilton Grand Vacation Club Hotel
Hilton Vacation Club Oceanaire Virginia Beach,https://www.hilton.com/en/hotels/orfaigv-hilton-vacation-club-oceanaire-virginia-beach,,Hilton Grand Vacation Club,Hilton Grand Vacation Club,Brand,36.8630538,-75.9787935,"3421 Atlantic Ave, Virginia Beach, VA 23451, USA",google_places,PLACE_DETAILS,ChIJ-63JLW_puokRe8gE-u-kUlI,establishment;lodging;point_of_interest,False,PLACES:orfaigv Hilton vacation club oceanaire virginia beach Hilton Grand Vacation Club Hotel
Hilton Vacation Club Palm Canyon Palm Springs,https://www.hilton.com/en/hotels/pspspgv-hilton-vacation-club-palm-canyon-palm-springs,,Hilton Grand Vacation Club,Hilton Grand Vacation Club,Brand,33.781411,-116.544135,"2800 S Palm Canyon Dr, Palm Springs, CA 92264, USA",google_places,PLACE_DETAILS,ChIJp-jXOzEb24ARXGUTnpsBGs8,establishment;lodging;point_of_interest,False,PLACES:pspspgv Hilton vacation club palm canyon palm springs Hilton Grand Vacation Club Hotel
Hilton Vacation Club Polynesian Isles Kissimmee,https://www.hilton.com/en/hotels/mcopygv-hilton-vacation-club-polynesian-isles-kissimmee,,Hilton Grand Vacation Club,Hilton Grand Vacation Club,Brand,28.3384066,-81.4953693,"3045 Polynesian Isle Blvd, Kissimmee, FL 34746, USA",google_places,PLACE_DETAILS,ChIJySaJGMCB3YgRMXVKDtGB5BU,establishment;lodging;point_of_interest,False,PLACES:mcopygv Hilton vacation club polynesian isles kissimmee Hilton Grand Vacation Club Hotel
Hilton Vacation Club Rancho Manana Phoenix/Cave Creek,https://www.hilton.com/en/hotels/phxragv-hilton-vacation-club-rancho-manana,,Hilton Grand Vacation Club,Hilton Grand Vacation Club,Brand,33.8327084,-111.9564184,"5720 E Rancho Manana Blvd, Cave Creek, AZ 85331, USA",google_places,PLACE_DETAILS,ChIJfyiMNCF8K4cRFFU1krSqKfc,establishment;lodging;point_of_interest,False,PLACES:phxragv Hilton vacation club rancho manana Hilton Grand Vacation Club Hotel
Hilton Vacation Club Ridge on Sedona,https://www.hilton.com/en/hotels/flgrigv-hilton-vacation-club-ridge-on-sedona,,Hilton Grand Vacation Club,Hilton Grand Vacation Club,Brand,34.771925,-111.767059,"55 Sunridge Cir, Sedona, AZ 86351, USA",google_places,PLACE_DETAILS,ChIJEeHuGqqoLYcRdj2DG3BYW9E,establishment;lodging;point_of_interest,False,PLACES:flgrigv Hilton vacation club ridge on sedona Hilton Grand Vacation Club Hotel
Hilton Vacation Club Riviera Beach & Shores,https://www.hilton.com/en/hotels/snarbgv-hilton-vacation-club-riviera-beach-and-shores,,Hilton Grand Vacation Club,Hilton Grand Vacation Club,Brand,33.4599321,-117.6743294,"34630 Pacific Coast Hwy, Capistrano Beach, CA 92624, USA",google_places,PLACE_DETAILS,ChIJixAjlQ7x3IARIQ9YjzJ2cbI,establishment;lodging;point_of_interest,False,PLACES:snarbgv Hilton vacation club riviera beach shores Hilton Grand Vacation Club Hotel
Hilton Vacation Club Royal Palm St. Maarten,https://www.hilton.com/en/hotels/sxmrogv-hilton-vacation-club-royal-palm-st-maarten,,Hilton Grand Vacation Club,Hilton Grand Vacation Club,Brand,18.03547,-63.09430199999999,"115 Welfare Rd, Philipsburg, Sint Maarten",google_places,PLACE_DETAILS,ChIJI2yf2LpuDowRN6pp9VexYsk,establishment;lodging;point_of_interest,False,PLACES:sxmrogv Hilton vacation club royal palm st maarten Hilton Grand Vacation Club Hotel
Hilton Vacation Club Scottsdale Links Resort,https://www.hilton.com/en/hotels/phxregv-hilton-vacation-club-scottsdale-links-resort,,Hilton Grand Vacation Club,Hilton Grand Vacation Club,Brand,33.6398169,-111.8970924,"16858 N Perimeter Dr, Scottsdale, AZ 85255, USA",google_places,PLACE_DETAILS,ChIJTyjqbdF1K4cRKFT90tbgyrw,establishment;lodging;point_of_interest,False,PLACES:phxregv Hilton vacation club scottsdale links resort Hilton Grand Vacation Club Hotel
Hilton Vacation Club Scottsdale Villa Mirage,https://www.hilton.com/en/hotels/phxmrgv-hilton-vacation-club-scottsdale-villa-mirage,,Hilton Grand Vacation Club,Hilton Grand Vacation Club,Brand,33.647456,-111.9117074,"7887 E Princess Blvd, Scottsdale, AZ 85255, USA",google_places,PLACE_DETAILS,ChIJ9SzgyIN2K4cRTQ1AaTT-a3k,establishment;lodging;point_of_interest,False,PLACES:phxmrgv Hilton vacation club scottsdale villa mirage Hilton Grand Vacation Club Hotel
Hilton Vacation Club Sedona Summit,https://www.hilton.com/en/hotels/flgsegv-hilton-vacation-club-sedona-summit,,Hilton Grand Vacation Club,Hilton Grand Vacation Club,Brand,34.8522845,-111.8276785,"4055 Navoti Dr, Sedona, AZ 86336, USA",google_places,PLACE_DETAILS,ChIJlcuUMcmgLYcRiNZtnx9_WFk,establishment;lodging;point_of_interest,False,PLACES:flgsegv Hilton vacation club sedona summit Hilton Grand Vacation Club Hotel
Hilton Vacation Club The Cove on Ormond Beach,https://www.hilton.com/en/hotels/dabcogv-hilton-vacation-club-the-cove-on-ormond-beach,,Hilton Grand Vacation Club,Hilton Grand Vacation Club,Brand,29.2885106,-81.03772939999999,"145 S Atlantic Ave, Ormond Beach, FL 32176, USA",google_places,PLACE_DETAILS,ChIJuRRozyXb5ogR1yR_eFPUskw,establishment;lodging;point_of_interest,False,PLACES:dabcogv Hilton vacation club cove on ormond beach Hilton Grand Vacation Club Hotel
Hilton Vacation Club The Historic Powhatan Williamsburg,https://www.hilton.com/en/hotels/phfpogv-hilton-vacation-club-the-historic-powhatan-williamsburg,,Hilton Grand Vacation Club,Hilton Grand Vacation Club,Brand,37.2630212,-76.7691838,"3601 Ironbound Rd, Williamsburg, VA 23188, USA",google_places,PLACE_DETAILS,ChIJdzx9xVqKsIkRWGMYh90gjB8,establishment;lodging;point_of_interest,False,PLACES:phfpogv Hilton vacation club historic powhatan williamsburg Hilton Grand Vacation Club Hotel
Hilton Vacation Club The Modern Honolulu,https://www.hilton.com/en/hotels/hnlmogv-hilton-vacation-club-the-modern-honolulu,,Hilton Grand Vacation Club,Hilton Grand Vacation Club,Brand,21.2849832,-157.8390632,"1775 Ala Moana Blvd, Honolulu, HI 96815, USA",google_places,PLACE_DETAILS,ChIJY4vEJvRtAHwRrQ0ZoXvnpK4,establishment;lodging;point_of_interest,False,PLACES:hnlmogv Hilton vacation club modern honolulu Hilton Grand Vacation Club Hotel
"Beach House Fort Lauderdale, a Hilton Resort",https://www.hilton.com/en/hotels/fllfshh-beach-house-fort-lauderdale/,,Hilton Hotels & Resorts,Hilton Hotels & Resorts,Brand,26.1293889,-80.1040864,"505 N Fort Lauderdale Beach Blvd, Fort Lauderdale, FL 33304, USA",google_places,PLACE_DETAILS,ChIJEXpbd9QB2YgRwGa8OYqSaTE,establishment;lodging;point_of_interest,False,PLACES:fllfshh beach house fort lauderdale Hilton Hotels & Resorts Hotel
"Cape Rey Carlsbad Beach, a Hilton Resort and Spa",https://www.hilton.com/en/hotels/sanrshf-cape-rey-carlsbad-beach/,,Hilton Hotels & Resorts,Hilton Hotels & Resorts,Brand,33.097794,-117.315939,"1 Ponto Rd, Carlsbad, CA 92011, USA",google_places,PLACE_DETAILS,ChIJ9UqJRdVy3IARauvCTzRsNRI,establishment;lodging;point_of_interest,False,PLACES:sanrshf cape rey carlsbad beach Hilton Hotels & Resorts Hotel
Caribe Hilton,https://www.hilton.com/en/hotels/sjnhihh-caribe-hilton/,,Hilton Hotels & Resorts,Hilton Hotels & Resorts,Brand,18.4633907,-66.0859495,"1 C. San Gerónimo, San Juan, 00901, Puerto Rico",google_places,PLACE_DETAILS,ChIJNWroByNvA4wRUBsD3LD2-ro,establishment;lodging;point_of_interest,False,PLACES:sjnhihh caribe Hilton Hilton Hotels & Resorts Hotel
"El Conquistador Tucson, A Hilton Resort",https://www.hilton.com/en/hotels/tushthh-el-conquistador-tucson/,,Hilton Hotels & Resorts,Hilton Hotels & Resorts,Brand,32.3861132,-110.956662,"10000 N Oracle Rd, Tucson, AZ 85704, USA",google_places,PLACE_DETAILS,ChIJC09lJPsM1oYR3UwQ89hPoDk,establishment;lodging;point_of_interest,False,PLACES:tushthh el conquistador tucson Hilton Hotels & Resorts Hotel
Hilton Abu Dhabi Yas Island,https://www.hilton.com/en/hotels/auhyihi-hilton-abu-dhabi-yas-island/,,Hilton Hotels & Resorts,Hilton Hotels & Resorts,Brand,24.4594232,54.6011471,Yas Bay - Yas Island - YS2 - Abu Dhabi - United Arab Emirates,google_places,PLACE_DETAILS,ChIJ7za_SY1FXj4R1gEhQkwqFQU,establishment;lodging;point_of_interest;spa,False,PLACES:auhyihi Hilton abu dhabi yas island Hilton Hotels & Resorts Hotel
Hilton Alexandria Corniche,https://www.hilton.com/en/hotels/alyachi-hilton-alexandria-corniche/,,Hilton Hotels & Resorts,Hilton Hotels & Resorts,Brand,31.2616309,29.9837591,"544 El-Gaish Rd, Sidi Beshr Bahri, Montaza 1, Alexandria Governorate 21611, Egypt",google_places,PLACE_DETAILS,ChIJBfyCPbDa9RQRUX-TBYjWfjk,establishment;lodging;point_of_interest,False,PLACES:alyachi Hilton alexandria corniche Hilton Hotels & Resorts Hotel
Hilton Alexandria King's Ranch,https://www.hilton.com/en/hotels/alykrhi-hilton-alexandria-kings-ranch/,,Hilton Hotels & Resorts,Hilton Hotels & Resorts,Brand,30.9821346,29.6927536,"10.5 km, طريق القاهرة - برج العرب الصحراوى، إيكنجي مريوط (شرق وغرب)، ثان العامرية، محافظة الإسكندرية 5244626, Egypt",google_places,PLACE_DETAILS,ChIJqek71nmO9RQRDoJeTljm544,establishment;lodging;point_of_interest,False,PLACES:alykrhi Hilton alexandria kings ranch Hilton Hotels & Resorts Hotel
Hilton Anatole,https://www.hilton.com/en/hotels/dfwanhh-hilton-anatole/,,Hilton Hotels & Resorts,Hilton Hotels & Resorts,Brand,32.7998411,-96.82914840000001,"2201 N Stemmons Fwy, Dallas, TX 75207, USA",google_places,PLACE_DETAILS,ChIJWwFFk1KZToYR4vcCc_ObGoQ,establishment;lodging;point_of_interest,False,PLACES:dfwanhh Hilton anatole Hilton Hotels & Resorts Hotel
Hilton Aruba Caribbean Resort & Casino,https://www.hilton.com/en/hotels/auahhhh-hilton-aruba-caribbean-resort-and-casino/,,Hilton Hotels & Resorts,Hilton Hotels & Resorts,Brand,12.5683896,-70.0461052,"J.E. Irausquin Blvd 81, Noord, Aruba",google_places,PLACE_DETAILS,ChIJ4QplCQY4hY4RUGR4EZmeGfo,establishment;lodging;point_of_interest,False,PLACES:auahhhh Hilton aruba caribbean resort casino Hilton Hotels & Resorts Hotel
Hilton Bali Resort,https://www.hilton.com/en/hotels/dpsbahi-hilton-bali-resort/,,Hilton Hotels & Resorts,Hilton Hotels & Resorts,Brand,-8.8256848,115.2186745,"Jl. Raya Nusa Dua Selatan, Benoa, Kec. Kuta Sel., Kabupaten Badung, Bali 80361, Indonesia",google_places,PLACE_DETAILS,ChIJASohYcZc0i0RdnXPUHNg12M,establishment;lodging;point_of_interest;spa,False,PLACES:dpsbahi Hilton bali resort Hilton Hotels & Resorts Hotel
Hilton Barbados Resort,https://www.hilton.com/en/hotels/bgihihh-hilton-barbados-resort/,,Hilton Hotels & Resorts,Hilton Hotels & Resorts,Brand,13.0789938,-59.6116983,"Needham's Point, Bridgetown, Saint Michael BB11000Barbados",google_places,PLACE_DETAILS,ChIJGXzshKz3Q4wRoLrhJHDZMPg,establishment;lodging;point_of_interest,False,PLACES:bgihihh Hilton barbados resort Hilton Hotels & Resorts Hotel
Hilton Beachfront Resort and Spa Hilton Head Island,https://www.hilton.com/en/hotels/hhhrshh-hilton-beachfront-resort-and-spa-hilton-head-island/,,Hilton Hotels & Resorts,Hilton Hotels & Resorts,Brand,32.1667164,-80.71666479999999,"One Hotel Circle, Hilton Head Island, SC 29928, USA",google_places,PLACE_DETAILS,ChIJ9yUZ3L95_IgRlMjs0UuyZMg,establishment;lodging;point_of_interest,False,PLACES:hhhrshh Hilton beachfront resort spa Hilton head island Hilton Hotels & Resorts Hotel
Hilton Bentley Miami/South Beach,https://www.hilton.com/en/hotels/miabmhf-hilton-bentley-miami-south-beach/,,Hilton Hotels & Resorts,Hilton Hotels & Resorts,Brand,25.7697042,-80.13243729999999,"101 Ocean Dr, Miami Beach, FL 33139, USA",google_places,PLACE_DETAILS,ChIJl2DXTBK12YgR35O8ITUAwWA,establishment;lodging;point_of_interest,False,PLACES:miabmhf Hilton bentley miami south beach Hilton Hotels & Resorts Hotel
Hilton Cabana Miami Beach Resort,https://www.hilton.com/en/hotels/miambhf-hilton-cabana-miami-beach-resort/,,Hilton Hotels & Resorts,Hilton Hotels & Resorts,Brand,25.8441522,-80.1205992,"6261 Collins Ave, Miami Beach, FL 33140, USA",google_places,PLACE_DETAILS,ChIJGcJmIiCz2YgR57gCmOLUE2M,establishment;lodging;point_of_interest,False,PLACES:miambhf Hilton cabana miami beach resort Hilton Hotels & Resorts Hotel
Hilton Cabo Verde Sal Resort,https://www.hilton.com/en/hotels/sidcvhi-hilton-cabo-verde-sal-resort/,,Hilton Hotels & Resorts,Hilton Hotels & Resorts,Brand,16.5949955,-22.9170143,"Avenida dos Hoteis, Santa Maria 4111, Cabo Verde",google_places,PLACE_DETAILS,ChIJ0SdtyHJcSwkRHKufYAwzWA8,establishment;lodging;point_of_interest;spa,False,PLACES:sidcvhi Hilton cabo verde sal resort Hilton Hotels & Resorts Hotel
Hilton Cancun Mar Caribe All-Inclusive Resort,https://www.hilton.com/en/hotels/cunmchh-hilton-cancun-mar-caribe-all-inclusive-resort/,,Hilton Hotels & Resorts,Hilton Hotels & Resorts,Brand,21.071961,-86.77672129999999,"Blvd. Kukulcan Km 17, Zona Hotelera, 77500 Cancún, Q.R., Mexico",google_places,PLACE_DETAILS,ChIJA6fegS4oTI8R1a-DAf0LJmA,establishment;lodging;point_of_interest,False,PLACES:cunmchh Hilton cancun mar caribe all inclusive resort Hilton Hotels & Resorts Hotel
"Hilton Cancun, an All-Inclusive Resort",https://www.hilton.com/en/hotels/cunqrhh-hilton-cancun/,,Hilton Hotels & Resorts,Hilton Hotels & Resorts,Brand,20.9538196,-86.83611169999999,"Carr Federal Libre 307 Cancun-Tulum Km 248-868, SM-36, LT-1-01 UPE-1E, 77580 Cancun, Q.R., Mexico",google_places,PLACE_DETAILS,ChIJFzwYx7uGTo8R7Zvxt7RS1Ac,establishment;lodging;point_of_interest,False,PLACES:cunqrhh Hilton cancun Hilton Hotels & Resorts Hotel
Hilton Cartagena Hotel,https://www.hilton.com/en/hotels/ctghihh-hilton-cartagena-hotel/,,Hilton Hotels & Resorts,Hilton Hotels & Resorts,Brand,10.3938158,-75.5597854,"Avenida Almirante Brion, El Laguito, Cartagena de Indias, Bolívar, Colombia",google_places,PLACE_DETAILS,ChIJNwAma5Ml9o4Rne2vb9mxcQk,establishment;lodging;point_of_interest,False,PLACES:ctghihh Hilton cartagena hotel Hilton Hotels & Resorts Hotel
Hilton Chicago/Oak Brook Hills Resort & Conference Center,https://www.hilton.com/en/hotels/chibhhh-hilton-chicago-oak-brook-hills-resort-and-conference-center/,,Hilton Hotels & Resorts,Hilton Hotels & Resorts,Brand,41.821245,-87.972168,"3500 Midwest Rd, Oak Brook, IL 60523, USA",google_places,PLACE_DETAILS,ChIJ55eOEoBODogR_X_Qb24gB3k,establishment;lodging;point_of_interest,False,PLACES:chibhhh Hilton chicago oak brook hills resort conference center Hilton Hotels & Resorts Hotel
Hilton Clark Sun Valley Resort,https://www.hilton.com/en/hotels/crkpphi-hilton-clark-sun-valley-resort/,,Hilton Hotels & Resorts,Hilton Hotels & Resorts,Brand,15.1785043,120.50842,"Jose Abad Santos Ave, Clark Freeport, Angeles, 2023 Pampanga, Philippines",google_places,PLACE_DETAILS,ChIJ-XPZ86uSljMRMvq-r4sI0yE,establishment;lodging;point_of_interest,False,PLACES:crkpphi Hilton clark sun valley resort Hilton Hotels & Resorts Hotel
Hilton Clearwater Beach Resort & Spa,https://www.hilton.com/en/hotels/piecbhf-hilton-clearwater-beach-resort-and-spa/,,Hilton Hotels & Resorts,Hilton Hotels & Resorts,Brand,27.9786867,-82.8278091,"400 Mandalay Ave, Clearwater, FL 33767, USA",google_places,PLACE_DETAILS,ChIJu-GpStH2wogRqXB7I7FzOjg,establishment;lodging;point_of_interest,False,PLACES:piecbhf Hilton clearwater beach resort spa Hilton Hotels & Resorts Hotel
Hilton Dalaman Sarigerme Resort & Spa,https://www.hilton.com/en/hotels/dlmhrhi-hilton-dalaman-sarigerme-resort-and-spa/,,Hilton Hotels & Resorts,Hilton Hotels & Resorts,Brand,36.710086,28.7234875,"Sarigerme Tourism Center, Sarıgerme, 48610 Ortaca/Muğla, Türkiye",google_places,PLACE_DETAILS,ChIJ3f2wHn55wBQRiLloMB7dpzg,establishment;lodging;point_of_interest;spa,False,PLACES:dlmhrhi Hilton dalaman sarigerme resort spa Hilton Hotels & Resorts Hotel
Hilton Dali Resort & Spa,https://www.hilton.com/en/hotels/dlugthi-hilton-dali-resort-and-spa/,,Hilton Hotels & Resorts,Hilton Hotels & Resorts,Brand,25.6446896,100.1820982,"J5VJ+VRH 感通路, 以南, Da Li Shi, Da Li Bai Zu Zi Zhi Zhou, Yun Nan Sheng, China, 671000",google_places,PLACE_DETAILS,ChIJW9sHDdrAJzcRF1ddH-wXffY,establishment;lodging;point_of_interest,False,PLACES:dlugthi Hilton dali resort spa Hilton Hotels & Resorts Hotel
Hilton Dalian Golden Pebble Beach Resort,https://www.hilton.com/en/hotels/dlugthi-hilton-dali-resort-and-spa/,,Hilton Hotels & Resorts,Hilton Hotels & Resorts,Brand,25.6446896,100.1820982,"J5VJ+VRH 感通路, 以南, Da Li Shi, Da Li Bai Zu Zi Zhi Zhou, Yun Nan Sheng, China, 671000",google_places,PLACE_DETAILS,ChIJW9sHDdrAJzcRF1ddH-wXffY,establishment;lodging;point_of_interest,False,PLACES:dlugthi Hilton dali resort spa Hilton Hotels & Resorts Hotel
Hilton Dallas/Rockwall Lakefront,https://www.hilton.com/en/hotels/dalrwhf-hilton-dallas-rockwall-lakefront/,,Hilton Hotels & Resorts,Hilton Hotels & Resorts,Brand,32.8883349,-96.4809774,"2055 Summer Lee Dr, Rockwall, TX 75032, USA",google_places,PLACE_DETAILS,ChIJP6FgYD2qToYRkBKpooIGG98,establishment;lodging;point_of_interest,False,PLACES:dalrwhf Hilton dallas rockwall lakefront Hilton Hotels & Resorts Hotel
Hilton Daytona Beach Oceanfront Resort,https://www.hilton.com/en/hotels/dabdhhf-hilton-daytona-beach-oceanfront-resort/,,Hilton Hotels & Resorts,Hilton Hotels & Resorts,Brand,29.229231,-81.00852859999999,"100 N Atlantic Ave, Daytona Beach, FL 32118, USA",google_places,PLACE_DETAILS,ChIJYz_2uRXa5ogRi6ohGgHaaX8,establishment;lodging;point_of_interest,False,PLACES:dabdhhf Hilton daytona beach oceanfront resort Hilton Hotels & Resorts Hotel
Hilton Dead Sea Resort & Spa,https://www.hilton.com/en/hotels/ammdshi-hilton-dead-sea-resort-and-spa/,,Hilton Hotels & Resorts,Hilton Hotels & Resorts,Brand,31.7218826,35.5885786,"Dead Sea Rd., Sweimeh 11953, Jordan",google_places,PLACE_DETAILS,ChIJLwTXMuZJAxURQ0xWMYaROHk,establishment;lodging;point_of_interest,False,PLACES:ammdshi Hilton dead sea resort spa Hilton Hotels & Resorts Hotel
Hilton Doha,https://www.hilton.com/en/hotels/dohhdhi-hilton-doha/,,Hilton Hotels & Resorts,Hilton Hotels & Resorts,Brand,25.3260837,51.5400866,"Diplomatic St, Doha, Qatar",google_places,PLACE_DETAILS,ChIJiadj--rERT4RgsyswxOR6bI,establishment;lodging;point_of_interest;spa,False,PLACES:dohhdhi Hilton doha Hilton Hotels & Resorts Hotel
Hilton Doha The Pearl,https://www.hilton.com/en/hotels/dohprhi-hilton-doha-the-pearl/,,Hilton Hotels & Resorts,Hilton Hotels & Resorts,Brand,25.3746786,51.5394703,"Abraj Quartier، Tower AQ-07، Pearl Blvd, Doha, Qatar",google_places,PLACE_DETAILS,ChIJJxYpHRHDRT4Rqza8V1CLvDw,establishment;lodging;point_of_interest;spa,False,PLACES:dohprhi Hilton doha pearl Hilton Hotels & Resorts Hotel
Hilton Dubai Jumeirah,https://www.hilton.com/en/hotels/dxbjbhi-hilton-dubai-jumeirah/,,Hilton Hotels & Resorts,Hilton Hotels & Resorts,Brand,25.0785373,55.1340691,Tower A The Walk - Marsa Dubai - Jumeirah Beach Residence - Dubai - United Arab Emirates,google_places,PLACE_DETAILS,ChIJiylT1ikVXz4Re2wDPZeVVIo,establishment;lodging;point_of_interest;spa,False,PLACES:dxbjbhi Hilton dubai jumeirah Hilton Hotels & Resorts Hotel
Hilton Dubai Palm Jumeirah,https://www.hilton.com/en/hotels/dxbpjhi-hilton-dubai-palm-jumeirah/,,Hilton Hotels & Resorts,Hilton Hotels & Resorts,Brand,25.1057115,55.147307,Palm West Beach - The Palm Jumeirah - Dubai - United Arab Emirates,google_places,PLACE_DETAILS,ChIJl4gaDFhrXz4RQg1McAKQOMw,establishment;lodging;point_of_interest;spa,False,PLACES:dxbpjhi Hilton dubai palm jumeirah Hilton Hotels & Resorts Hotel
Hilton Dubai The Walk,https://www.hilton.com/en/hotels/dxbbrhi-hilton-dubai-the-walk/,,Hilton Hotels & Resorts,Hilton Hotels & Resorts,Brand,25.0785373,55.1340691,Tower A The Walk - Marsa Dubai - Jumeirah Beach Residence - Dubai - United Arab Emirates,google_places,PLACE_DETAILS,ChIJiylT1ikVXz4Re2wDPZeVVIo,establishment;lodging;point_of_interest;spa,False,PLACES:dxbbrhi Hilton dubai walk Hilton Hotels & Resorts Hotel
Hilton Fiji Beach Resort and Spa,https://www.hilton.com/en/hotels/nanhihi-hilton-fiji-beach-resort-and-spa/,,Hilton Hotels & Resorts,Hilton Hotels & Resorts,Brand,-17.7683515,177.37756,"Denarau Island, Fiji",google_places,PLACE_DETAILS,ChIJg2QmcrZEF24RzPmorO1Npvs,establishment;lodging;point_of_interest;spa,False,PLACES:nanhihi Hilton fiji beach resort spa Hilton Hotels & Resorts Hotel
Hilton Fort Lauderdale Marina,https://www.hilton.com/en/hotels/fllgrhh-hilton-fort-lauderdale-marina/,,Hilton Hotels & Resorts,Hilton Hotels & Resorts,Brand,26.1014338,-80.1202295,"1881 SE 17th St, Fort Lauderdale, FL 33316, USA",google_places,PLACE_DETAILS,ChIJpwSr5moA2YgRFN8G2s9BbJ0,establishment;lodging;point_of_interest,False,PLACES:fllgrhh Hilton fort lauderdale marina Hilton Hotels & Resorts Hotel
Hilton Frankfurt Gravenbruch,https://www.hilton.com/de/hotels/frahghi-hilton-frankfurt-gravenbruch/,,Hilton Hotels & Resorts,Hilton Hotels & Resorts,Brand,50.0554873,8.7483141,"Graf-zu-Ysenburg-und-Büdingen-Platz 1, 63263 Neu-Isenburg, Germany",google_places,PLACE_DETAILS,ChIJm7fDP3kNvUcRTp65o5mEj6s,establishment;lodging;point_of_interest;spa,False,PLACES:frahghi Hilton frankfurt gravenbruch Hilton Hotels & Resorts Hotel
Hilton Galveston Island Resort,https://www.hilton.com/en/hotels/glsgihf-hilton-galveston-island-resort/,,Hilton Hotels & Resorts,Hilton Hotels & Resorts,Brand,29.2707145,-94.821378,"5400 Seawall Blvd, Galveston, TX 77551, USA",google_places,PLACE_DETAILS,ChIJ074TKjucP4YRRetI2oO6DCo,establishment;lodging;point_of_interest,False,PLACES:glsgihf Hilton galveston island resort Hilton Hotels & Resorts Hotel
Hilton Goa Resort,https://www.hilton.com/en/hotels/goishhi-hilton-goa-resort/,,Hilton Hotels & Resorts,Hilton Hotels & Resorts,Brand,15.5198989,73.7951254,"Pilerne - Candolim Rd, Saipem, Candolim, Marra, Goa 403515, India",google_places,PLACE_DETAILS,ChIJQ6HIW7PBvzsRQqetb_ZD4Qs,establishment;lodging;point_of_interest,False,PLACES:goishhi Hilton goa resort Hilton Hotels & Resorts Hotel
Hilton Guam Resort & Spa,https://www.hilton.com/en/hotels/gumhitw-hilton-guam-resort-and-spa/,,Hilton Hotels & Resorts,Hilton Hotels & Resorts,Brand,13.5053049,144.7860059,"Tumon Bay, 202 Hilton Road, Tumon, 96913, Guam",google_places,PLACE_DETAILS,ChIJF-EmTZ2CH2cRttpIkjLZXB0,establishment;lodging;point_of_interest;spa,False,PLACES:gumhitw Hilton guam resort spa Hilton Hotels & Resorts Hotel
Hilton Gyeongju,https://www.hilton.com/en/hotels/kyohitw-hilton-gyeongju/,,Hilton Hotels & Resorts,Hilton Hotels & Resorts,Brand,35.839999,129.2859734,"484-7 Bomun-ro, 보덕동 Gyeongju, Gyeongsangbuk-do, South Korea",google_places,PLACE_DETAILS,ChIJ97c8JBFOZjURbO2bxUDBiMk,establishment;lodging;point_of_interest,False,PLACES:kyohitw Hilton gyeongju Hilton Hotels & Resorts Hotel
Hilton Hangzhou Qiandao Lake Resort,https://www.hilton.com/en/hotels/hghlrhi-hilton-hangzhou-qiandao-lake-resort/,,Hilton Hotels & Resorts,Hilton Hotels & Resorts,Brand,29.6098885,119.0841815,"China, Hang Zhou Shi, Chun An Xian, Qian Dao Hu Zhen, 环湖北路600号 邮政编码: 311700",google_places,PLACE_DETAILS,ChIJDZWWXAOLSTQR4JoKtpTbZEE,establishment;lodging;point_of_interest,False,PLACES:hghlrhi Hilton hangzhou qiandao lake resort Hilton Hotels & Resorts Hotel
Hilton Hawaiian Village Waikiki Beach Resort,https://www.hilton.com/en/hotels/hnlhvhh-hilton-hawaiian-village-waikiki-beach-resort/,,Hilton Hotels & Resorts,Hilton Hotels & Resorts,Brand,21.282395,-157.837535,"2005 Kālia Rd, Honolulu, HI 96815, USA",google_places,PLACE_DETAILS,ChIJNyh1DvVtAHwRMEI89WJMUrE,establishment;lodging;point_of_interest,False,PLACES:hnlhvhh Hilton hawaiian village waikiki beach resort Hilton Hotels & Resorts Hotel
Hilton Hotel Tahiti,https://www.hilton.com/en/hotels/ppthihh-hilton-hotel-tahiti/,,Hilton Hotels & Resorts,Hilton Hotels & Resorts,Brand,-17.5456223,-149.5862572,"Auae Faaa, Papeete 98713, French Polynesia",google_places,PLACE_DETAILS,ChIJNW4hpww6mnYRQEzZ3-TecGA,establishment;lodging;point_of_interest,False,PLACES:ppthihh Hilton hotel tahiti Hilton Hotels & Resorts Hotel
Hilton Hua Hin Resort & Spa,https://www.hilton.com/en/hotels/hhqhihi-hilton-hua-hin-resort-and-spa/,,Hilton Hotels & Resorts,Hilton Hotels & Resorts,Brand,12.5706466,99.9604323,"33 Soi Naresdamri, Tambon Hua Hin, Amphoe Hua Hin, Chang Wat Prachuap Khiri Khan 77110, Thailand",google_places,PLACE_DETAILS,ChIJCQq0B7Or_TAR3A7VZkkZcBg,establishment;lodging;point_of_interest;spa,False,PLACES:hhqhihi Hilton hua hin resort spa Hilton Hotels & Resorts Hotel
Hilton Huizhou Longmen Resort,https://www.hilton.com/en/hotels/huzlhhi-hilton-huizhou-longmen-resort/,,Hilton Hotels & Resorts,Hilton Hotels & Resorts,Brand,23.5832572,114.0014213,"China, Guang Dong Sheng, Hui Zhou Shi, Long Men Xian, 永汉镇富力南昆山温泉养生谷 邮政编码: 516870",google_places,PLACE_DETAILS,ChIJrSOAcApRAzQRxJlol3-Pwsk,establishment;lodging;point_of_interest,False,PLACES:huzlhhi Hilton huizhou longmen resort Hilton Hotels & Resorts Hotel
Hilton Hurghada Plaza,https://www.hilton.com/en/hotels/hrghitw-hilton-hurghada-plaza/,,Hilton Hotels & Resorts,Hilton Hotels & Resorts,Brand,27.256716,33.8305494,"Gabal El Hareem Street, Hurghada 2, Red Sea Governorate 84511, Egypt",google_places,PLACE_DETAILS,ChIJNSpKp5OBUhQRKH4hZf3DCgE,establishment;lodging;point_of_interest;spa,False,PLACES:hrghitw Hilton hurghada plaza Hilton Hotels & Resorts Hotel
Hilton La Jolla Torrey Pines,https://www.hilton.com/en/hotels/santphh-hilton-la-jolla-torrey-pines/,,Hilton Hotels & Resorts,Hilton Hotels & Resorts,Brand,32.9017901,-117.2438005,"10950 N Torrey Pines Rd, La Jolla, CA 92037, USA",google_places,PLACE_DETAILS,ChIJcZr61fQG3IARt5V8qRSvuGg,establishment;lodging;point_of_interest,False,PLACES:santphh Hilton la jolla torrey pines Hilton Hotels & Resorts Hotel
Hilton Lake Las Vegas Resort & Spa,https://www.hilton.com/en/hotels/laslkhf-hilton-lake-las-vegas-resort-and-spa/,,Hilton Hotels & Resorts,Hilton Hotels & Resorts,Brand,36.1022638,-114.9317577,"1610 Lake Las Vegas Pkwy, Henderson, NV 89011, USA",google_places,PLACE_DETAILS,ChIJdwf4uZPXyIARKQj9Nhhmh1E,establishment;lodging;point_of_interest,False,PLACES:laslkhf Hilton lake las vegas resort spa Hilton Hotels & Resorts Hotel
Hilton Los Cabos Beach & Golf Resort,https://www.hilton.com/en/hotels/sjdlchh-hilton-los-cabos-beach-and-golf-resort/,,Hilton Hotels & Resorts,Hilton Hotels & Resorts,Brand,22.9814035,-109.7645158,"Carr. Transpeninsular, Tourist Corridor, 23400 Cabo San Lucas, B.C.S., Mexico",google_places,PLACE_DETAILS,ChIJqd7wrx5Or4YR5DAgkGszvyk,establishment;lodging;point_of_interest,False,PLACES:sjdlchh Hilton los cabos beach golf resort Hilton Hotels & Resorts Hotel
Hilton Luxor Resort & Spa,https://www.hilton.com/en/hotels/luxhitw-hilton-luxor-resort-and-spa/,,Hilton Hotels & Resorts,Hilton Hotels & Resorts,Brand,25.7304089,32.656622,"Karnak, Luxor, Luxor Governorate 85954, Egypt",google_places,PLACE_DETAILS,ChIJx8V1SYQVSRQRUo4ZK01ndCg,establishment;lodging;point_of_interest;spa,False,PLACES:luxhitw Hilton luxor resort spa Hilton Hotels & Resorts Hotel
Hilton Maldives Amingiri Resort & Spa,https://www.hilton.com/en/hotels/mleaihi-hilton-maldives-amingiri-resort-and-spa/,,Hilton Hotels & Resorts,Hilton Hotels & Resorts,Brand,4.2490991,73.3680035,"Malé 08540, Maldives",google_places,PLACE_DETAILS,ChIJaXIudtV9QDsRhwXFfQ33PA4,establishment;lodging;point_of_interest;spa,False,PLACES:mleaihi Hilton maldives amingiri resort spa Hilton Hotels & Resorts Hotel
Hilton Mallorca Galatzo,https://www.hilton.com/en/hotels/pmicchi-hilton-mallorca-galatzo/,,Hilton Hotels & Resorts,Hilton Hotels & Resorts,Brand,39.5286429,2.4733053,"Ctra. Andratx, Km 20, 07160 Costa de la Calma, Illes Balears, Spain",google_places,PLACE_DETAILS,ChIJm2YFgeIgmBIRrZ6B2_ycYPc,establishment;lodging;point_of_interest;spa,False,PLACES:pmicchi Hilton mallorca galatzo Hilton Hotels & Resorts Hotel
Hilton Malta,https://www.hilton.com/en/hotels/mlahitw-hilton-malta/,,Hilton Hotels & Resorts,Hilton Hotels & Resorts,Brand,35.9220193,14.4930656,"Vjal Portomaso, San Ġiljan STJ 4012, Malta",google_places,PLACE_DETAILS,ChIJFyFWAWtFDhMRpAO00Q8NxQw,establishment;lodging;point_of_interest;spa,False,PLACES:mlahitw Hilton malta Hilton Hotels & Resorts Hotel
Hilton Marco Island Beach Resort,https://www.hilton.com/en/hotels/mrkmhhf-hilton-marco-island-beach-resort-and-spa/,,Hilton Hotels & Resorts,Hilton Hotels & Resorts,Brand,25.9216044,-81.72800199999999,"560 S Collier Blvd, Marco Island, FL 34145, USA",google_places,PLACE_DETAILS,ChIJ8z0Id2fu2ogRhYNWWmIwV7o,establishment;lodging;point_of_interest,False,PLACES:mrkmhhf Hilton marco island beach resort spa Hilton Hotels & Resorts Hotel
Hilton Marsa Alam Nubian Resort,https://www.hilton.com/en/hotels/rmfhihi-hilton-marsa-alam-nubian-resort/,,Hilton Hotels & Resorts,Hilton Hotels & Resorts,Brand,25.3458631,34.7347297,"Al Qusair - Marsa Allam Road, km 97, مرسى علم، محافظة البحر الأحمر 84721, Egypt",google_places,PLACE_DETAILS,ChIJ3wv_OCS7tBURpe-xUFjkIBc,establishment;lodging;point_of_interest,False,PLACES:rmfhihi Hilton marsa alam nubian resort Hilton Hotels & Resorts Hotel
Hilton Mauritius Resort & Spa,https://www.hilton.com/en/hotels/mruhihi-hilton-mauritius-resort-and-spa/,,Hilton Hotels & Resorts,Hilton Hotels & Resorts,Brand,-20.3084186,57.3672748,"Coastal Road MU, Wolmar, Flic en Flac 90503, Mauritius",google_places,PLACE_DETAILS,ChIJAQCQrnlBfCERysbu7j5fmqk,establishment;lodging;point_of_interest;spa,False,PLACES:mruhihi Hilton mauritius resort spa Hilton Hotels & Resorts Hotel
Hilton Moorea Lagoon Resort and Spa,https://www.hilton.com/en/hotels/pptmlhh-hilton-moorea-lagoon-resort-and-spa/,,Hilton Hotels & Resorts,Hilton Hotels & Resorts,Brand,-17.4853911,-149.8443651,"BP 1005, Moorea-Maiao 98729, French Polynesia",google_places,PLACE_DETAILS,ChIJkbraqnWKmXYR2nVFGdneXtI,establishment;lodging;point_of_interest,False,PLACES:pptmlhh Hilton moorea lagoon resort spa Hilton Hotels & Resorts Hotel
Hilton Myrtle Beach Resort,https://www.hilton.com/en/hotels/myrbhhh-hilton-myrtle-beach-resort/,,Hilton Hotels & Resorts,Hilton Hotels & Resorts,Brand,33.7694104,-78.77504909999999,"10000 Beach Club Dr, Myrtle Beach, SC 29572, USA",google_places,PLACE_DETAILS,ChIJvbEGTVlkAIkR1h8HhEMAiQw,establishment;lodging;point_of_interest,False,PLACES:myrbhhh Hilton myrtle beach resort Hilton Hotels & Resorts Hotel
Hilton Nanjing Niushoushan,https://www.hilton.com/en/hotels/nkgnshi-hilton-nanjing-niushoushan/,,Hilton Hotels & Resorts,Hilton Hotels & Resorts,Brand,31.9125486,118.7556296,"8 Ning Dan Da Dao, Jiang Ning Qu, Nan Jing Shi, Jiang Su Sheng, China, 211151",google_places,PLACE_DETAILS,ChIJxbHapjyCtTURXdATedqvMus,establishment;lodging;point_of_interest,False,PLACES:nkgnshi Hilton nanjing niushoushan Hilton Hotels & Resorts Hotel
Hilton Ningbo Dongqian Lake,https://www.hilton.com/en/hotels/ngbqahi-hilton-ningbo-dongqian-lake/,,Hilton Hotels & Resorts,Hilton Hotels & Resorts,Brand,29.7870785,121.6504619,"99 连心路, 东钱湖旅游度假区, Yin Zhou Qu, Ning Bo Shi, Zhe Jiang Sheng, China, 315122",google_places,PLACE_DETAILS,ChIJ5biwDWiCUjQRFgdWYBM4yaA,establishment;lodging;point_of_interest,False,PLACES:ngbqahi Hilton ningbo dongqian lake Hilton Hotels & Resorts Hotel
Hilton Niseko Village,https://www.hilton.com/en/hotels/ctsnvhi-hilton-niseko-village/,,Hilton Hotels & Resorts,Hilton Hotels & Resorts,Brand,42.8467613,140.6849092,"東山温泉, Niseko, Abuta District, Hokkaido 048-1592, Japan",google_places,PLACE_DETAILS,ChIJvZor3eavCl8R2q19j6BGG9U,establishment;lodging;point_of_interest;spa,False,PLACES:ctsnvhi Hilton niseko village Hilton Hotels & Resorts Hotel
Hilton Ocean City Oceanfront Suites,https://www.hilton.com/en/hotels/sbyofhf-hilton-ocean-city-oceanfront-suites/,,Hilton Hotels & Resorts,Hilton Hotels & Resorts,Brand,38.3607934,-75.0717468,"3200 Baltimore Ave, Ocean City, MD 21842, USA",google_places,PLACE_DETAILS,ChIJM_xWuQLWuIkRKlTb2N-_NRk,establishment;lodging;point_of_interest,False,PLACES:sbyofhf Hilton ocean city oceanfront suites Hilton Hotels & Resorts Hotel
Hilton Odawara Resort & Spa,https://www.hilton.com/en/hotels/tyoodhi-hilton-odawara-resort-and-spa/,,Hilton Hotels & Resorts,Hilton Hotels & Resorts,Brand,35.2069059,139.1312991,"583-1 Nebukawa, Odawara, Kanagawa 250-0024, Japan",google_places,PLACE_DETAILS,ChIJMc0AHPQDGGARgTendoDYXEE,establishment;lodging;point_of_interest;spa,False,PLACES:tyoodhi Hilton odawara resort spa Hilton Hotels & Resorts Hotel
Hilton Okinawa Chatan Resort,https://www.hilton.com/en/hotels/okaochi-hilton-okinawa-chatan-resort/,,Hilton Hotels & Resorts,Hilton Hotels & Resorts,Brand,26.3185401,127.7548399,"40-1 Mihama, Chatan, Nakagami District, Okinawa 904-0115, Japan",google_places,PLACE_DETAILS,ChIJg9-0XA8T5TQRzTrC6JnPEXI,establishment;lodging;point_of_interest;spa,False,PLACES:okaochi Hilton okinawa chatan resort Hilton Hotels & Resorts Hotel
Hilton Okinawa Miyako Island Resort,https://www.hilton.com/en/hotels/okamihi-hilton-okinawa-miyako-island-resort/,,Hilton Hotels & Resorts,Hilton Hotels & Resorts,Brand,24.8009954,125.2593677,"Kugai-550-7 Hirara, Miyakojima, Okinawa 906-0015, Japan",google_places,PLACE_DETAILS,ChIJN_Qy5NRV9DQRwxzcwuf9Gec,establishment;lodging;point_of_interest;spa,False,PLACES:okamihi Hilton okinawa miyako island resort Hilton Hotels & Resorts Hotel
Hilton Okinawa Sesoko Resort,https://www.hilton.com/en/hotels/okasehi-hilton-okinawa-sesoko-resort/,,Hilton Hotels & Resorts,Hilton Hotels & Resorts,Brand,26.6495817,127.8586859,"5750番地 Sesoko, Motobu, Kunigami District, Okinawa 905-0227, Japan",google_places,PLACE_DETAILS,ChIJPRvRkxf95DQRt4QgeMitRTU,establishment;lodging;point_of_interest;spa,False,PLACES:okasehi Hilton okinawa sesoko resort Hilton Hotels & Resorts Hotel
Hilton Orlando,https://www.hilton.com/en/hotels/orlochh-hilton-orlando/,,Hilton Hotels & Resorts,Hilton Hotels & Resorts,Brand,28.4248385,-81.4589945,"6001 Destination Pkwy, Orlando, FL 32819, USA",google_places,PLACE_DETAILS,ChIJb8-RCjl-54gRq7HvnadKrMA,establishment;lodging;point_of_interest,False,PLACES:orlochh Hilton orlando Hilton Hotels & Resorts Hotel
Hilton Orlando Buena Vista Palace Disney Springs Area,https://www.hilton.com/en/hotels/mcobuhh-hilton-orlando-buena-vista-palace/,,Hilton Hotels & Resorts,Hilton Hotels & Resorts,Brand,28.3764199,-81.5145742,"1900 E Buena Vista Dr, Lake Buena Vista, FL 32830, USA",google_places,PLACE_DETAILS,ChIJsYlOgieA3YgRLmMxu2QGKaY,establishment;lodging;point_of_interest,False,PLACES:mcobuhh Hilton orlando buena vista palace Hilton Hotels & Resorts Hotel
Hilton Orlando Lake Buena Vista - Disney Springs Area,https://www.hilton.com/en/hotels/orldwhh-hilton-orlando-lake-buena-vista/,,Hilton Hotels & Resorts,Hilton Hotels & Resorts,Brand,28.3764199,-81.5145742,"1900 E Buena Vista Dr, Lake Buena Vista, FL 32830, USA",google_places,PLACE_DETAILS,ChIJsYlOgieA3YgRLmMxu2QGKaY,establishment;lodging;point_of_interest,False,PLACES:orldwhh Hilton orlando lake buena vista Hilton Hotels & Resorts Hotel
Hilton Palm Springs,https://www.hilton.com/en/hotels/psppshf-hilton-palm-springs/,,Hilton Hotels & Resorts,Hilton Hotels & Resorts,Brand,33.823793,-116.543195,"400 E Tahquitz Canyon Way, Palm Springs, CA 92262, USA",google_places,PLACE_DETAILS,ChIJFZ53d6Qb24AReSJBflV_-aY,establishment;lodging;point_of_interest,False,PLACES:psppshf Hilton palm springs Hilton Hotels & Resorts Hotel
Hilton Pattaya,https://www.hilton.com/en/hotels/bkkhphi-hilton-pattaya/,,Hilton Hotels & Resorts,Hilton Hotels & Resorts,Brand,12.9349943,100.8828219,"333 101 Moo 9 Nongprue Muang Pattaya, Amphoe Bang Lamung, Chang Wat Chon Buri 20260, Thailand",google_places,PLACE_DETAILS,ChIJm3fTmwWWAjERWKKhI-eRcQM,establishment;lodging;point_of_interest;spa,False,PLACES:bkkhphi Hilton pattaya Hilton Hotels & Resorts Hotel
Hilton Pensacola Beach,https://www.hilton.com/en/hotels/pnspehf-hilton-pensacola-beach/,,Hilton Hotels & Resorts,Hilton Hotels & Resorts,Brand,30.332611,-87.13699729999999,"12 Via De Luna Dr, Pensacola Beach, FL 32561, USA",google_places,PLACE_DETAILS,ChIJx4FV0-DFkIgRGcUdd6DCeSU,establishment;lodging;point_of_interest,False,PLACES:pnspehf Hilton pensacola beach Hilton Hotels & Resorts Hotel
Hilton Phoenix Resort at the Peak,https://www.hilton.com/en/hotels/phxsppr-hilton-phoenix-resort-at-the-peak/,,Hilton Hotels & Resorts,Hilton Hotels & Resorts,Brand,33.5479156,-112.0471345,"7677 N 16th St, Phoenix, AZ 85020, USA",google_places,PLACE_DETAILS,ChIJ7-D9fKdyK4cRZsrkdxP4LTY,establishment;lodging;point_of_interest,False,PLACES:phxsppr Hilton phoenix resort peak Hilton Hotels & Resorts Hotel
Hilton Phoenix Tapatio Cliffs Resort,https://www.hilton.com/en/hotels/phxtcpr-hilton-phoenix-tapatio-cliffs-resort/,,Hilton Hotels & Resorts,Hilton Hotels & Resorts,Brand,33.594979,-112.064225,"11111 N 7th St, Phoenix, AZ 85020, USA",google_places,PLACE_DETAILS,ChIJt-dtqOxtK4cRJ_F-fDxO_lY,establishment;lodging;point_of_interest,False,PLACES:phxtcpr Hilton phoenix tapatio cliffs resort Hilton Hotels & Resorts Hotel
Hilton Ponce Golf & Casino Resort,https://www.hilton.com/en/hotels/pnchihh-hilton-ponce-golf-and-casino-resort/,,Hilton Hotels & Resorts,Hilton Hotels & Resorts,Brand,17.9711171,-66.6024108,"1150 Av. Caribe, Ponce, 00716, Puerto Rico",google_places,PLACE_DETAILS,ChIJswW1_g7WHIwRyuhT0ZLiybI,establishment;lodging;point_of_interest,False,PLACES:pnchihh Hilton ponce golf casino resort Hilton Hotels & Resorts Hotel
Hilton Pyramids Golf,https://www.hilton.com/en/hotels/caipghi-hilton-pyramids-golf/,,Hilton Hotels & Resorts,Hilton Hotels & Resorts,Brand,29.9637057,31.0451831,"El Wahat Rd, First 6th of October, Giza Governorate 3291312, Egypt",google_places,PLACE_DETAILS,ChIJY0UxsRHIXRQRJqHRK0aVn6k,establishment;lodging;point_of_interest;spa,False,PLACES:caipghi Hilton pyramids golf Hilton Hotels & Resorts Hotel
Hilton Queenstown Resort & Spa,https://www.hilton.com/en/hotels/zqnhqhi-hilton-queenstown-resort-and-spa/,,Hilton Hotels & Resorts,Hilton Hotels & Resorts,Brand,-45.02876819999999,168.7283052,"79 Peninsula Road, Kawarau Heights, Queenstown 9300, New Zealand",google_places,PLACE_DETAILS,ChIJsTq94hUe1akRBDiLLjtLS5s,establishment;lodging;point_of_interest;spa,False,PLACES:zqnhqhi Hilton queenstown resort spa Hilton Hotels & Resorts Hotel
Hilton Rijeka Costabella Beach Resort & Spa,https://www.hilton.com/en/hotels/rjkochi-hilton-rijeka-costabella-beach-resort-and-spa/,,Hilton Hotels & Resorts,Hilton Hotels & Resorts,Brand,45.34704360000001,14.3504557,"Opatijska ul. 9, 51000, Rijeka, Croatia",google_places,PLACE_DETAILS,ChIJD0lT6VGnZEcRsKH5Ne7H56k,establishment;lodging;point_of_interest;spa,False,PLACES:rjkochi Hilton rijeka costabella beach resort spa Hilton Hotels & Resorts Hotel
Hilton Salalah Resort,https://www.hilton.com/en/hotels/sllhihi-hilton-salalah-resort/,,Hilton Hotels & Resorts,Hilton Hotels & Resorts,Brand,16.9815001,54.015114,"As Sultan Qaboos St, Salalah 211, Oman",google_places,PLACE_DETAILS,ChIJm1MYtNxg0T0RpklBAdrIpP8,establishment;lodging;point_of_interest,False,PLACES:sllhihi Hilton salalah resort Hilton Hotels & Resorts Hotel
Hilton Salwa Beach Resort & Villas,https://www.hilton.com/en/hotels/dohsbhi-hilton-salwa-beach-resort-villas/,,Hilton Hotels & Resorts,Hilton Hotels & Resorts,Brand,24.8514996,50.8584509,"Salwa Rd, exit 86, Learaig Interchange, أبو سمرة، Qatar",google_places,PLACE_DETAILS,ChIJXyw7M3f3Rj4ReGo0mfWEjB0,establishment;lodging;point_of_interest;spa,False,PLACES:dohsbhi Hilton salwa beach resort villas Hilton Hotels & Resorts Hotel
Hilton San Diego/Del Mar,https://www.hilton.com/en/hotels/sandmhf-hilton-san-diego-del-mar/,,Hilton Hotels & Resorts,Hilton Hotels & Resorts,Brand,32.9782672,-117.2550894,"15575 Jimmy Durante Blvd, Del Mar, CA 92014, USA",google_places,PLACE_DETAILS,ChIJu3AsbtoI3IARwLKGCJ14YmQ,establishment;lodging;point_of_interest,False,PLACES:sandmhf Hilton san diego del mar Hilton Hotels & Resorts Hotel
Hilton Sandestin Beach Golf Resort & Spa,https://www.hilton.com/en/hotels/deshihf-hilton-sandestin-beach-golf-resort-and-spa/,,Hilton Hotels & Resorts,Hilton Hotels & Resorts,Brand,30.3698031,-86.3274611,"4000 S Sandestin Blvd, Miramar Beach, FL 32550, USA",google_places,PLACE_DETAILS,ChIJV-1X1URZkYgRzpJ29oiz7y4,establishment;lodging;point_of_interest,False,PLACES:deshihf Hilton sandestin beach golf resort spa Hilton Hotels & Resorts Hotel
Hilton Sanqingshan Resort,https://www.hilton.com/en/hotels/sqdhihi-hilton-sanqingshan-resort/,,Hilton Hotels & Resorts,Hilton Hotels & Resorts,Brand,28.8800195,118.0626469,"南部外双溪景区, 三清山风景名胜区, Yu Shan Xian, Shang Rao Shi, Jiang Xi Sheng, China, 334000",google_places,PLACE_DETAILS,ChIJdUXgw0CjNzQRf3a37GZjexU,establishment;lodging;point_of_interest,False,PLACES:sqdhihi Hilton sanqingshan resort Hilton Hotels & Resorts Hotel
Hilton Santa Barbara Beachfront Resort,https://www.hilton.com/en/hotels/sbafphh-hilton-santa-barbara-beachfront-resort/,,Hilton Hotels & Resorts,Hilton Hotels & Resorts,Brand,34.4167626,-119.6765529,"633 E Cabrillo Blvd, Santa Barbara, CA 93103, USA",google_places,PLACE_DETAILS,ChIJy2wjn5YT6YARrBbgsfxve6Y,establishment;lodging;point_of_interest,False,PLACES:sbafphh Hilton santa barbara beachfront resort Hilton Hotels & Resorts Hotel
Hilton Santa Fe Buffalo Thunder,https://www.hilton.com/en/hotels/sfecghh-hilton-santa-fe-buffalo-thunder/,,Hilton Hotels & Resorts,Hilton Hotels & Resorts,Brand,35.8610264,-105.9959167,"20 Buffalo Thunder Trail, Santa Fe, NM 87506, USA",google_places,PLACE_DETAILS,ChIJl3kVipJHGIcR0OPIRnIOpto,establishment;lodging;point_of_interest,False,PLACES:sfecghh Hilton santa fe buffalo thunder Hilton Hotels & Resorts Hotel
Hilton Santa Marta,https://www.hilton.com/en/hotels/smrcnhh-hilton-santa-marta/,,Hilton Hotels & Resorts,Hilton Hotels & Resorts,Brand,11.2390884,-74.216355,"Cra. 1c #24-04, Comuna 2, Santa Marta, Magdalena, Colombia",google_places,PLACE_DETAILS,ChIJa-9Ow3319I4R2hUfOwLOUgg,establishment;lodging;point_of_interest,False,PLACES:smrcnhh Hilton santa marta Hilton Hotels & Resorts Hotel
Hilton Sanya Yalong Bay Resort & Spa,https://www.hilton.com/en/hotels/syxhihi-hilton-sanya-yalong-bay-resort-and-spa/,,Hilton Hotels & Resorts,Hilton Hotels & Resorts,Brand,18.2274684,109.624767,"China, Hai Nan Sheng, San Ya Shi, Ji Yang Qu, 亚龙湾国家旅游度假区 邮政编码: 572011",google_places,PLACE_DETAILS,ChIJQ8nEv-e2WjERGCqXzAig-SI,establishment;lodging;point_of_interest,False,PLACES:syxhihi Hilton sanya yalong bay resort spa Hilton Hotels & Resorts Hotel
Hilton Scottsdale Resort & Villas,https://www.hilton.com/en/hotels/sctshhf-hilton-scottsdale-resort-and-villas/,,Hilton Hotels & Resorts,Hilton Hotels & Resorts,Brand,33.5307437,-111.9243634,"6333 N Scottsdale Rd, Scottsdale, AZ 85250, USA",google_places,PLACE_DETAILS,ChIJJS1YcBQLK4cROm0PbkS3R9M,establishment;lodging;point_of_interest,False,PLACES:sctshhf Hilton scottsdale resort villas Hilton Hotels & Resorts Hotel
Hilton Sedona Resort at Bell Rock,https://www.hilton.com/en/hotels/sdxsehh-hilton-sedona-resort-at-bell-rock/,,Hilton Hotels & Resorts,Hilton Hotels & Resorts,Brand,34.7746799,-111.7664641,"90 Ridge Trail Dr, Sedona, AZ 86351, USA",google_places,PLACE_DETAILS,ChIJ08YOxwGmLYcRwCyqk7nAsHQ,establishment;lodging;point_of_interest,False,PLACES:sdxsehh Hilton sedona resort bell rock Hilton Hotels & Resorts Hotel
Hilton Seychelles Northolme Resort & Spa,https://www.hilton.com/en/hotels/sezhihi-hilton-seychelles-northolme-resort-and-spa/,,Hilton Hotels & Resorts,Hilton Hotels & Resorts,Brand,-4.5922623,55.43174980000001,"N Coast Rd, Mahé, Seychelles",google_places,PLACE_DETAILS,ChIJwQdIDZoo4CIRkqvanlj-KZk,establishment;lodging;point_of_interest;spa,False,PLACES:sezhihi Hilton seychelles northolme resort spa Hilton Hotels & Resorts Hotel
Hilton Sorrento Palace,https://www.hilton.com/en/hotels/rrohihi-hilton-sorrento-palace/,,Hilton Hotels & Resorts,Hilton Hotels & Resorts,Brand,40.6208989,14.3717722,"Via Rivolo S.Antonio, 13, 80067 Sorrento NA, Italy",google_places,PLACE_DETAILS,ChIJQ8ivSDecOxMRk_l64fWulS8,establishment;lodging;point_of_interest,False,PLACES:rrohihi Hilton sorrento palace Hilton Hotels & Resorts Hotel
Hilton Swinoujscie Resort & Spa,https://www.hilton.com/en/hotels/szzhihi-hilton-swinoujscie-resort-and-spa/,,Hilton Hotels & Resorts,Hilton Hotels & Resorts,Brand,53.9199528,14.2602898,"Aleja Baltic Park Molo 4, 72-600 Świnoujście, Poland",google_places,PLACE_DETAILS,ChIJJVhjkLtfqkcR5eFYlnp-C5o,establishment;lodging;point_of_interest;spa,False,PLACES:szzhihi Hilton swinoujscie resort spa Hilton Hotels & Resorts Hotel
Hilton Tangier Al Houara Resort & Spa,https://www.hilton.com/en/hotels/tngahhi-hilton-tangier-al-houara-resort-and-spa/,,Hilton Hotels & Resorts,Hilton Hotels & Resorts,Brand,35.6674645,-5.9658372,"Km 19.8, National Route 1 Tangier-Asilah، Tanger 90100, Morocco",google_places,PLACE_DETAILS,ChIJB9kC_smPCw0Rfs2OMD8nmBw,establishment;lodging;point_of_interest;spa,False,PLACES:tngahhi Hilton tangier al houara resort spa Hilton Hotels & Resorts Hotel
Hilton Tokyo Bay,https://www.hilton.com/en/hotels/tyotbtw-hilton-tokyo-bay/,,Hilton Hotels & Resorts,Hilton Hotels & Resorts,Brand,35.6270749,139.8739812,"1-8 Maihama, Urayasu, Chiba 279-0031, Japan",google_places,PLACE_DETAILS,ChIJn9bhTxB9GGAR6XuwFBHgxmA,establishment;lodging;point_of_interest;spa,False,PLACES:tyotbtw Hilton tokyo bay Hilton Hotels & Resorts Hotel
Hilton Tulum Riviera Maya All-Inclusive Resort,https://www.hilton.com/en/hotels/cunhihh-hilton-tulum-riviera-maya-all-inclusive-resort/,,Hilton Hotels & Resorts,Hilton Hotels & Resorts,Brand,20.3534,-87.33694,"Carr. Cancún - Tulum 307, Tulkal, 77774 Cdad. Chemuyil, Q.R., Mexico",google_places,PLACE_DETAILS,ChIJ4cbyvR4zTo8RljKUVmg2SkY,establishment;lodging;point_of_interest,False,PLACES:cunhihh Hilton tulum riviera maya all inclusive resort Hilton Hotels & Resorts Hotel
Hilton Vallarta Riviera All-Inclusive Resort,https://www.hilton.com/en/hotels/pvrpahh-hilton-vallarta-riviera-all-inclusive-resort/,,Hilton Hotels & Resorts,Hilton Hotels & Resorts,Brand,20.5694806,-105.2504444,"Carr Barra De Navidad Km4.5, Zona Hotelera, Sur, 48390 Puerto Vallarta, Jal., Mexico",google_places,PLACE_DETAILS,ChIJT7mB-cVbIYQR1jqiHQQByHo,establishment;lodging;point_of_interest,False,PLACES:pvrpahh Hilton vallarta riviera all inclusive resort Hilton Hotels & Resorts Hotel
Hilton Vilamoura As Cascatas Golf Resort & Spa,https://www.hilton.com/en/hotels/faohihi-hilton-vilamoura-as-cascatas-golf-resort-and-spa/,,Hilton Hotels & Resorts,Hilton Hotels & Resorts,Brand,37.0931655,-8.1116104,"R. da Torre d'Água Lote 4.11 1.B, Vilamoura, 8125-615 Quarteira, Portugal",google_places,PLACE_DETAILS,ChIJm_9Mv8K1Gg0ReMgh4lG3vgw,establishment;lodging;point_of_interest;spa,False,PLACES:faohihi Hilton vilamoura as cascatas golf resort spa Hilton Hotels & Resorts Hotel
Hilton Virginia Beach Oceanfront,https://www.hilton.com/en/hotels/orfvhhf-hilton-virginia-beach-oceanfront/,,Hilton Hotels & Resorts,Hilton Hotels & Resorts,Brand,36.8590349,-75.9777333,"3001 Atlantic Ave, Virginia Beach, VA 23451, USA",google_places,PLACE_DETAILS,ChIJGdY1VG7puokR-FE26VuiyTU,establishment;lodging;point_of_interest,False,PLACES:orfvhhf Hilton virginia beach oceanfront Hilton Hotels & Resorts Hotel
Hilton Waikiki Beach,https://www.hilton.com/en/hotels/hnlwahf-hilton-waikiki-beach-resort-and-spa/,,Hilton Hotels & Resorts,Hilton Hotels & Resorts,Brand,21.282395,-157.837535,"2005 Kālia Rd, Honolulu, HI 96815, USA",google_places,PLACE_DETAILS,ChIJNyh1DvVtAHwRMEI89WJMUrE,establishment;lodging;point_of_interest,False,PLACES:hnlwahf Hilton waikiki beach resort spa Hilton Hotels & Resorts Hotel
Hilton Waikoloa Village,https://www.hilton.com/en/hotels/koahwhh-hilton-waikoloa-village/,,Hilton Hotels & Resorts,Hilton Hotels & Resorts,Brand,19.9239292,-155.8871765,"69-425 Waikōloa Beach Dr, Waikoloa Village, HI 96738, USA",google_places,PLACE_DETAILS,ChIJxZ2pxo53VHkRNqPqqSPHzmU,establishment;lodging;point_of_interest,False,PLACES:koahwhh Hilton waikoloa village Hilton Hotels & Resorts Hotel
Hilton Whistler Resort & Spa,https://www.hilton.com/en/hotels/ywsvrhf-hilton-whistler-resort-and-spa/,,Hilton Hotels & Resorts,Hilton Hotels & Resorts,Brand,50.1126449,-122.9560389,"4050 Whistler Way, Whistler, BC V8E 1H9, Canada",google_places,PLACE_DETAILS,ChIJudh7Fksjh1QRpwCqN27Z7KQ,establishment;lodging;point_of_interest,False,PLACES:ywsvrhf Hilton whistler resort spa Hilton Hotels & Resorts Hotel
Hilton Yala Resort,https://www.hilton.com/en/hotels/kdwyahi-hilton-yala-resort/,,Hilton Hotels & Resorts,Hilton Hotels & Resorts,Brand,6.257084,81.40043399999999,"Palatupana, Yala 95000, Sri Lanka",google_places,PLACE_DETAILS,ChIJKUM55neE5joRiYj7U3Eiwyk,establishment;lodging;point_of_interest,False,PLACES:kdwyahi Hilton yala resort Hilton Hotels & Resorts Hotel
Hilton Yuxi Fuxian Lake,https://www.hilton.com/en/hotels/nkgyfhi-hilton-yuxi-fuxian-lake/,,Hilton Hotels & Resorts,Hilton Hotels & Resorts,Brand,24.5808558,102.9537243,"China, Yun Nan Sheng, Yu Xi Shi, Cheng Jiang Shi, 环湖东路10号 邮政编码: 652500",google_places,PLACE_DETAILS,ChIJzfOv1xxb0DYRo5QU2m49tsY,establishment;lodging;point_of_interest,False,PLACES:nkgyfhi Hilton yuxi fuxian lake Hilton Hotels & Resorts Hotel
Las Vegas Hilton at Resorts World,https://www.hilton.com/en/hotels/rslvhvh-resorts-world-las-vegas/,,Hilton Hotels & Resorts,Hilton Hotels & Resorts,Brand,36.13527440000001,-115.166924,"999 Resorts World Ave, Las Vegas, NV 89109, USA",google_places,PLACE_DETAILS,ChIJtx3-YhLEyIARlOvkgyAJbGo,establishment;lodging;point_of_interest,False,PLACES:rslvhvh resorts world las vegas Hilton Hotels & Resorts Hotel
Surfers Paradise Hilton,https://www.hilton.com/en/hotels/oolhihi-hilton-surfers-paradise-hotel-and-residences/,,Hilton Hotels & Resorts,Hilton Hotels & Resorts,Brand,-28.0010422,153.4294705,"6 Orchid Ave, Surfers Paradise QLD 4217, Australia",google_places,PLACE_DETAILS,ChIJp81W8HIFkWsRT35OPpyos_Y,establishment;lodging;point_of_interest;spa,False,PLACES:oolhihi Hilton surfers paradise hotel residences Hilton Hotels & Resorts Hotel
The Condado Plaza Hotel,https://www.hilton.com/en/hotels/sjucohh-the-condado-plaza-hotel/,,Hilton Hotels & Resorts,Hilton Hotels & Resorts,Brand,18.4603264,-66.0806774,"999 Ashford Ave, San Juan, 00907, Puerto Rico",google_places,PLACE_DETAILS,ChIJz62gXDtvA4wR8SmUMIfXIOc,establishment;lodging;point_of_interest,False,PLACES:sjucohh condado plaza hotel Hilton Hotels & Resorts Hotel
"The Inverness Denver, a Hilton Golf & Spa Resort",https://www.hilton.com/en/hotels/denirhh-the-inverness-denver-a-hilton-golf-and-spa-resort/,,Hilton Hotels & Resorts,Hilton Hotels & Resorts,Brand,39.5702946,-104.8670652,"200 Inverness Dr W, Englewood, CO 80112, USA",google_places,PLACE_DETAILS,ChIJb8Sbu7-FbIcRI2Bk580kGnQ,establishment;lodging;point_of_interest,False,PLACES:denirhh inverness denver a Hilton golf spa resort Hilton Hotels & Resorts Hotel
"The Lodge at Gulf State Park, a Hilton Hotel",https://www.hilton.com/en/hotels/pnslghh-the-lodge-at-gulf-state-park/,,Hilton Hotels & Resorts,Hilton Hotels & Resorts,Brand,30.2501867,-87.66401549999999,"21196 E Beach Blvd, Gulf Shores, AL 36542, USA",google_places,PLACE_DETAILS,ChIJdajX5QMFmogR_tZd1KAi9Vk,establishment;lodging;point_of_interest,False,PLACES:pnslghh lodge gulf state park Hilton Hotels & Resorts Hotel
"The Waterfront Beach Resort, a Hilton Hotel",https://www.hilton.com/en/hotels/hubwhhf-the-waterfront-beach-resort/,,Hilton Hotels & Resorts,Hilton Hotels & Resorts,Brand,33.6533479,-117.9943552,"21100 Pacific Coast Hwy, Huntington Beach, CA 92648, USA",google_places,PLACE_DETAILS,ChIJNQZQzhQh3YAR2zI2lYm8Y7U,establishment;lodging;point_of_interest,False,PLACES:hubwhhf waterfront beach resort Hilton Hotels & Resorts Hotel
Homewood Suites by Hilton Mont-Tremblant Resort,https://www.hilton.com/en/hotels/yqbmthw-homewood-suites-mont-tremblant-resort/,,Homewood Suites by Hilton,Homewood Suites by Hilton,Brand,46.213432,-74.5862861,"3035 Chem. de la Chapelle, Mont-Tremblant, QC J8E 1E1, Canada",google_places,PLACE_DETAILS,ChIJt7ZEudB3z0wRE8WADP4qXbQ,establishment;lodging;point_of_interest,False,PLACES:yqbmthw homewood suites mont tremblant resort Homewood Suites by Hilton Hotel
"Arizona Biltmore, LXR Hotels & Resorts",https://www.hilton.com/en/hotels/phxbmol-arizona-biltmore/,,LXR Hotels & Resorts,LXR Hotels & Resorts,Brand,33.522979,-112.0232359,"2400 E Missouri Ave, Phoenix, AZ 85016, USA",google_places,PLACE_DETAILS,ChIJ47o1_EENK4cR8ctPcgG9boE,establishment;lodging;point_of_interest,False,PLACES:phxbmol arizona biltmore LXR Hotels & Resorts Hotel
"Beach Village at The Del, LXR Hotels & Resorts",https://www.hilton.com/en/hotels/sancnol-beach-village-at-the-del/,,LXR Hotels & Resorts,LXR Hotels & Resorts,Brand,32.681407,-117.1794827,"1277 Rh Dana Pl, Coronado, CA 92118, USA",google_places,PLACE_DETAILS,ChIJfX-aw82s3oARBc6G9yaPaH4,establishment;lodging;point_of_interest,False,PLACES:sancnol beach village del LXR Hotels & Resorts Hotel
"Crockfords Las Vegas, LXR Hotels & Resorts",https://www.hilton.com/en/hotels/rslvhvh-resorts-world-las-vegas/,,LXR Hotels & Resorts,LXR Hotels & Resorts,Brand,36.13527440000001,-115.166924,"999 Resorts World Ave, Las Vegas, NV 89109, USA",google_places,PLACE_DETAILS,ChIJtx3-YhLEyIARlOvkgyAJbGo,establishment;lodging;point_of_interest,False,PLACES:rslvhvh resorts world las vegas LXR Hotels & Resorts Hotel
"Ka La'i Waikiki Beach, LXR Hotels & Resorts",https://www.hilton.com/en/hotels/hnlwiol-ka-lai-waikiki-beach/,,LXR Hotels & Resorts,LXR Hotels & Resorts,Brand,21.282395,-157.837535,"2005 Kālia Rd, Honolulu, HI 96815, USA",google_places,PLACE_DETAILS,ChIJNyh1DvVtAHwRMEI89WJMUrE,establishment;lodging;point_of_interest,False,PLACES:hnlwiol ka lai waikiki beach LXR Hotels & Resorts Hotel
"Katara Hills Doha, LXR Hotels & Resorts",https://www.hilton.com/en/hotels/dohqkol-katara-hills-doha/,,LXR Hotels & Resorts,LXR Hotels & Resorts,Brand,25.3529531,51.5236111,"Katara Cultural Village, Doha, Qatar",google_places,PLACE_DETAILS,ChIJFSa5u0_DRT4RIzRP0U1Iq-A,establishment;lodging;point_of_interest;spa,False,PLACES:dohqkol katara hills doha LXR Hotels & Resorts Hotel
"Mango House Seychelles, LXR Hotels & Resorts",https://www.hilton.com/en/hotels/sezitol-mango-house-seychelles/,,LXR Hotels & Resorts,LXR Hotels & Resorts,Brand,-4.7435269,55.4738161,"Anse Aux Poules Bleues Baie Lazare Victoria Mahé, Seychelles",google_places,PLACE_DETAILS,ChIJ4_klDGrV4SIRYCF_kxTHQ-I,establishment;lodging;point_of_interest;spa,False,PLACES:sezitol mango house seychelles LXR Hotels & Resorts Hotel
"Maysan Doha, LXR Hotels & Resorts",https://www.hilton.com/en/hotels/dohpaol-maysan-doha/,,LXR Hotels & Resorts,LXR Hotels & Resorts,Brand,25.2637616,51.43251350000001,"Baaya District, شارع الفروسية، الدوحة، Qatar",google_places,PLACE_DETAILS,ChIJQa8QbijaRT4RgIUurywTmQ0,establishment;lodging;point_of_interest;spa,False,PLACES:dohpaol maysan doha LXR Hotels & Resorts Hotel
"ROKU KYOTO, LXR Hotels & Resorts",https://www.hilton.com/ja/hotels/itmolol-roku-kyoto/,,LXR Hotels & Resorts,LXR Hotels & Resorts,Brand,35.0476127,135.7346805,"44-1 Kinugasa Kagamiishichō, Kita Ward, Kyoto, 603-8451, Japan",google_places,PLACE_DETAILS,ChIJe5gElQGpAWARvTkIO-v6H8I,establishment;lodging;point_of_interest;spa,False,PLACES:itmolol roku kyoto LXR Hotels & Resorts Hotel
"Shore House at The Del, LXR Hotels & Resorts",https://www.hilton.com/en/hotels/sanrhol-shore-house-at-the-del/,,LXR Hotels & Resorts,LXR Hotels & Resorts,Brand,32.67988,-117.17712,"1500 Orange Ave, Coronado, CA 92118, USA",google_places,PLACE_DETAILS,ChIJ0Wjinw-t3oARBcMi5nZPMkg,establishment;lodging;point_of_interest,False,PLACES:sanrhol shore house del LXR Hotels & Resorts Hotel
"Susona Bodrum, LXR Hotels & Resorts",https://www.hilton.com/en/hotels/bjvlxol-susona-bodrum/,,LXR Hotels & Resorts,LXR Hotels & Resorts,Brand,37.0876055,27.4766243,"Torba, Kaynar Cd No:15, 48420 Bodrum/Muğla, Türkiye",google_places,PLACE_DETAILS,ChIJr-wURTNpvhQRgfqUtlooL3o,establishment;lodging;point_of_interest;spa,False,PLACES:bjvlxol susona bodrum LXR Hotels & Resorts Hotel
"Umana Bali, LXR Hotels & Resorts",https://www.hilton.com/en/hotels/dpsolol-umana-bali-resort/,,LXR Hotels & Resorts,LXR Hotels & Resorts,Brand,-8.843874099999999,115.1588927,"Jl. Melasti, Ungasan, Kec. Kuta Sel., Kabupaten Badung, Bali 80364, Indonesia",google_places,PLACE_DETAILS,ChIJu2Y6Idtb0i0RQwERNLkO41g,establishment;lodging;point_of_interest;spa,False,PLACES:dpsolol umana bali resort LXR Hotels & Resorts Hotel
"Zemi Beach House, LXR Hotels & Resorts",https://www.hilton.com/en/hotels/axazbol-zemi-beach-house/,,LXR Hotels & Resorts,LXR Hotels & Resorts,Brand,18.2514162,-63.0367634,"Shoal Bay East, West Indies 2640, Anguilla",google_places,PLACE_DETAILS,ChIJt-MjSsBiDowRER5_nGYJPCY,establishment;lodging;point_of_interest,False,PLACES:axazbol zemi beach house LXR Hotels & Resorts Hotel
Signia by Hilton La Cantera Resort & Spa,https://www.hilton.com/en/hotels/satcnsa-signia-la-cantera-resort-and-spa,,Signia by Hilton,Signia by Hilton,Brand,29.6028861,-98.6224536,"16641 La Cantera Pkwy, San Antonio, TX 78256, USA",google_places,PLACE_DETAILS,ChIJ9ectyNVlXIYR3JGJAHxo5rE,establishment;lodging;point_of_interest;spa,False,PLACES:satcnsa signia la cantera resort spa Signia by Hilton Hotel
Signia by Hilton Orlando Bonnet Creek,https://www.hilton.com/en/hotels/orlhhsa-signia-by-hilton-orlando-bonnet-creek,,Signia by Hilton,Signia by Hilton,Brand,28.3558228,-81.5347968,"14100 Bonnet Creek Resort Ln, Orlando, FL 32821, USA",google_places,PLACE_DETAILS,ChIJObirUnJ_3YgRgKoJdbtSzWQ,establishment;lodging;point_of_interest,False,PLACES:orlhhsa signia Hilton orlando bonnet creek Signia by Hilton Hotel
"Fuwairit Kite Beach, Tapestry Collection by Hilton",https://www.hilton.com/en/hotels/dohkbup-fuwairit-kite-beach,,Tapestry Collection by Hilton,Tapestry Collection by Hilton,Brand,26.0189698,51.3826087,"Building No. 255, Street 3015, Exit 79, Al Shamal Rd, فويرط، Qatar",google_places,PLACE_DETAILS,ChIJh7FOsMY1Tz4RLWgMVpUD7xM,establishment;lodging;point_of_interest,False,PLACES:dohkbup fuwairit kite beach Tapestry Collection by Hilton Hotel
"Grand Wailea, A Waldorf Astoria Resort",https://www.grandwailea.com/,,Waldorf Astoria Hotels & Resorts,Waldorf Astoria Hotels & Resorts,Brand,20.6843088,-156.4410036,"3850 Wailea Alanui Dr, Wailea, HI 96753, USA",google_places,PLACE_DETAILS,ChIJlTbips_aVHkRtxGuu4WoJWU,establishment;lodging;point_of_interest,False,"PLACES:Grand Wailea, A Waldorf Astoria Resort Waldorf Astoria Hotels & Resorts Hotel"
"Rome Cavalieri, A Waldorf Astoria Hotel",https://romecavalieri.com/,,Waldorf Astoria Hotels & Resorts,Waldorf Astoria Hotels & Resorts,Brand,41.91881679999999,12.4466178,"Via Alberto Cadlolo, 101, 00136 Roma RM, Italy",google_places,PLACE_DETAILS,ChIJHw9AUoRgLxMR5jT9M_JvJeQ,establishment;lodging;point_of_interest;spa,False,"PLACES:Rome Cavalieri, A Waldorf Astoria Hotel Waldorf Astoria Hotels & Resorts Hotel"
Waldorf Astoria Costa Rica Punta Cacique,https://www.hilton.com/en/hotels/lirguwa-waldorf-astoria-costa-rica-punta-cacique,,Waldorf Astoria Hotels & Resorts,Waldorf Astoria Hotels & Resorts,Brand,10.5719869,-85.6973587,"Playa Penca, Ruta Nacional 159 km 3, Provincia de Guanacaste, Carrillo, 10901, Costa Rica",google_places,PLACE_DETAILS,ChIJbY8VN-wpno8RNTKUCGHGZnM,establishment;lodging;point_of_interest,False,PLACES:lirguwa waldorf astoria costa rica punta cacique Waldorf Astoria Hotels & Resorts Hotel
Waldorf Astoria Dubai Palm Jumeirah,https://www.hilton.com/en/hotels/dxbpdwa-waldorf-astoria-dubai-palm-jumeirah,,Waldorf Astoria Hotels & Resorts,Waldorf Astoria Hotels & Resorts,Brand,25.1345671,55.1511192,Crescent Rd - The Palm Jumeirah - Dubai - United Arab Emirates,google_places,PLACE_DETAILS,ChIJ__30xjFrXz4RVhGdvh_K-cw,establishment;lodging;point_of_interest;spa,False,PLACES:dxbpdwa waldorf astoria dubai palm jumeirah Waldorf Astoria Hotels & Resorts Hotel
Waldorf Astoria Las Vegas,https://www.hilton.com/en/hotels/laswdwa-waldorf-astoria-las-vegas,,Waldorf Astoria Hotels & Resorts,Waldorf Astoria Hotels & Resorts,Brand,36.1064332,-115.1737323,"3752 Las Vegas Blvd S, Las Vegas, NV 89158, USA",google_places,PLACE_DETAILS,ChIJx-F0ExfFyIARHZzQaIwFjIY,establishment;lodging;point_of_interest,False,PLACES:laswdwa waldorf astoria las vegas Waldorf Astoria Hotels & Resorts Hotel
Waldorf Astoria Los Cabos Pedregal,https://www.hilton.com/en/hotels/sjdwawa-waldorf-astoria-los-cabos-pedregal,,Waldorf Astoria Hotels & Resorts,Waldorf Astoria Hotels & Resorts,Brand,22.8747501,-109.912132,"Cam. del Mar 1, Pedregal, 23455 Cabo San Lucas, B.C.S., Mexico",google_places,PLACE_DETAILS,ChIJCYgqW1JLr4YRfz0sT0h46B0,establishment;lodging;point_of_interest,False,PLACES:sjdwawa waldorf astoria los cabos pedregal Waldorf Astoria Hotels & Resorts Hotel
"Waldorf Astoria Lusail, Doha",https://www.hilton.com/en/hotels/dohqtwa-waldorf-astoria-doha-lusail,,Waldorf Astoria Hotels & Resorts,Waldorf Astoria Hotels & Resorts,Brand,25.4087296,51.5200105,"Damsa Boulevard Entertainment City, Lusail, Qatar",google_places,PLACE_DETAILS,ChIJRVVfXbzDRT4R4DnSwQT84rk,establishment;lodging;point_of_interest;spa,False,PLACES:dohqtwa waldorf astoria doha lusail Waldorf Astoria Hotels & Resorts Hotel
Waldorf Astoria Maldives Ithaafushi,https://www.hilton.com/en/hotels/mleonwa-waldorf-astoria-maldives-ithaafushi,,Waldorf Astoria Hotels & Resorts,Waldorf Astoria Hotels & Resorts,Brand,4.013504699999999,73.39313729999999,"Ithaafushi Island South, Male 20009, Maldives",google_places,PLACE_DETAILS,ChIJ7xufEF6cQDsR0MkB2slCMhU,establishment;lodging;point_of_interest;spa,False,PLACES:mleonwa waldorf astoria maldives ithaafushi Waldorf Astoria Hotels & Resorts Hotel
Waldorf Astoria Monarch Beach,https://www.waldorfastoriamonarchbeach.com/,,Waldorf Astoria Hotels & Resorts,Waldorf Astoria Hotels & Resorts,Brand,33.4821356,-117.7159163,"1 Monarch Beach Resort N, Dana Point, CA 92629, USA",google_places,PLACE_DETAILS,ChIJXd9mdRbw3IARfdDIEFl4h-o,establishment;lodging;point_of_interest,False,PLACES:Waldorf Astoria Monarch Beach Waldorf Astoria Hotels & Resorts Hotel
Waldorf Astoria Orlando,https://www.hilton.com/en/hotels/orlbcwa-waldorf-astoria-orlando,,Waldorf Astoria Hotels & Resorts,Waldorf Astoria Hotels & Resorts,Brand,28.3536503,-81.53434419999999,"14200 Bonnet Creek Resort Ln, Orlando, FL 32821, USA",google_places,PLACE_DETAILS,ChIJ2VRuoXJ_3YgRK3PVUn07GYI,establishment;lodging;point_of_interest,False,PLACES:orlbcwa waldorf astoria orlando Waldorf Astoria Hotels & Resorts Hotel
Waldorf Astoria Park City,https://www.hilton.com/en/hotels/slcdmwa-waldorf-astoria-park-city,,Waldorf Astoria Hotels & Resorts,Waldorf Astoria Hotels & Resorts,Brand,40.6906113,-111.5496407,"2100 Frostwood Blvd, Park City, UT 84098, USA",google_places,PLACE_DETAILS,ChIJ62VYmjZsUocRzSFJ91tg2uI,establishment;lodging;point_of_interest,False,PLACES:slcdmwa waldorf astoria park city Waldorf Astoria Hotels & Resorts Hotel
Waldorf Astoria Ras Al Khaimah,https://www.hilton.com/en/hotels/rktwawa-waldorf-astoria-ras-al-khaimah,,Waldorf Astoria Hotels & Resorts,Waldorf Astoria Hotels & Resorts,Brand,25.6852852,55.77334699999999,Vienna St - Al Jazeera Al Hamra - Ras Al Khaimah - United Arab Emirates,google_places,PLACE_DETAILS,ChIJr2VAPjwK9j4RRqMiS0dB2_Y,establishment;lodging;point_of_interest;spa,False,PLACES:rktwawa waldorf astoria ras al khaimah Waldorf Astoria Hotels & Resorts Hotel
Waldorf Astoria Riveria Maya,https://www.hilton.com/en/hotels/cunwawa-waldorf-astoria-riviera-maya,,Waldorf Astoria Hotels & Resorts,Waldorf Astoria Hotels & Resorts,Brand,20.9520526,-86.8366669,"Carr Federal Libre 307 Cancun-Tulum 248-868, SM-36, MZ-1 LT-1-01 UPE-1E, 77580 Cancun, Q.R., Mexico",google_places,PLACE_DETAILS,ChIJkyOt07uGTo8RMr3LpxWrWeg,establishment;lodging;point_of_interest,False,PLACES:cunwawa waldorf astoria riviera maya Waldorf Astoria Hotels & Resorts Hotel
Waldorf Astoria Seychelles Platte Island,https://www.hilton.com/en/hotels/sezpiwa-waldorf-astoria-seychelles-platte-island,,Waldorf Astoria Hotels & Resorts,Waldorf Astoria Hotels & Resorts,Brand,-5.8634718,55.3825781,"Platte Island, Outer Islands, Seychelles",google_places,PLACE_DETAILS,ChIJMQ8LQy-H4iIRHouDt1Swdlk,establishment;lodging;point_of_interest;spa,False,PLACES:sezpiwa waldorf astoria seychelles platte island Waldorf Astoria Hotels & Resorts Hotel
Waldorf Astoria Versailles - Trianon Palace,https://www.hilton.com/en/hotels/cdgtpwa-waldorf-astoria-versailles-trianon-palace,,Waldorf Astoria Hotels & Resorts,Waldorf Astoria Hotels & Resorts,Brand,48.810637,2.120206,"1 Bd de la Reine, 78000 Versailles, France",google_places,PLACE_DETAILS,ChIJn6T0s7x95kcR7TffTWsFZPI,establishment;lodging;point_of_interest;spa,False,PLACES:cdgtpwa waldorf astoria versailles trianon palace Waldorf Astoria Hotels & Resorts Hotel
